index	officeName	address	latitude	longitude	nearestBranch2	nrstBrDist2	nearestBranch1	nrstBrDist1	nearestBranch	nrstBrDist
0	가남우체국	경기 여주시 가남읍 태평로 29	37.2017393	127.5451354	이천모가(취)	6808.787204	이천모가(취)	6808	안성삼죽(취)	20699
1	가정행정법원출장소	서울특별시 서초구 강남대로 193 (양재동)	37.4738618	127.0304589	서울서초우체국	1058.021065	서울서초우체국	1058	과천우면(취)	1242
2	가평북면우체국	경기 가평군 북면 가화로 967 (북면우체국)	37.8821732	127.5473771	가평우체국	6540.335632	가평우체국	6540	가평우체국	6540
3	가평우체국	경기 가평군 가평읍 보납로 2 (가평우체국)	37.8310677	127.5107432	청평우체국	13132.04265				
4	가평조종우체국	경기 가평군 조종면 현창로 31 (가평조종우체국)	37.8175108	127.3484262	상면우체국	1556.020125	가평우체국	14509	상면우체국	1556
5	강상우체국	경기 양평군 강상면 양평대교길 87	37.4825165	127.4851829	양평우체국	840.9243598	가평우체국	38748	퇴촌우체국	15980
6	강천우체국	경기 여주시 강천면 간매1길 10-1	37.2711424	127.7158482	북내우체국	7111.304622	강상우체국	31158	양동우체국	16821
7	강하우체국	경기 양평군 강하면 운심길 41	37.4961878	127.4107898	경기옥천우체국	4893.898871	강상우체국	6785	강상우체국	6785
8	강화갑곳리(취)	인천광역시 강화군 강화읍 갑룡길 33-1	37.7437302	126.4960365	강화우체국	780.736457	가평조종우체국	76225	통진우체국	10987
9	강화우체국	인천광역시 강화군 강화읍 강화대로 384	37.7460051	126.4877269	선원우체국	3655.593737	강화갑곳리(취)	780	강화갑곳리(취)	780
10	개군우체국	경기 양평군 개군면 하자포길 33	37.4258617	127.5367478	이포우체국	3703.565997	강상우체국	7781	강상우체국	7781
11	검단우체국	인천광역시 서구 검단로 487 (마전동)	37.5949114	126.6777746	인천원당우체국	1545.965683	강화갑곳리(취)	23105	김포풍무동(취)	4095
12	경기광주우체국	경기 광주시 행정타운로 49-10(송정동)	37.4278308	127.2531667	경기광주태전(취)	4583.973562	강하우체국	15935	경기광주태전(취)	4583
13	경기광주태전(취)	경기 광주시 고불로 109-9(태전동)	37.3926707	127.2261096	성남탑마을(취)	5807.230794	경기광주우체국	4583	과천우면(취)	18831
14	경기남양우체국	경기 화성시 남양읍 남양시장로 53	37.20902	126.8153287	마도우체국	3602.001428	경기광주태전(취)	41823	안산사동(취)	9703
15	경기옥천우체국	경기 양평군 옥천면 옥천길 42	37.5183979	127.4583429	양평우체국	4347.209853	강상우체국	4642	양평우체국	4347
16	경기용문우체국	경기 양평군 용문면 용문로 315	37.4819323	127.5898637	양평우체국	8874.967146	개군우체국	7811	개군우체국	7811
17	경기조안우체국	경기 남양주시 조안면 북한강로499번길 4	37.5649325	127.3189362	양평양서우체국	2102.649096	강하우체국	11175	덕소우체국	9840
18	경기파주우체국	경기 파주시 파주읍 향교말길 8	37.8327462	126.8169148	문산우체국	3794.030206	검단우체국	29149	문산우체국	3794
19	경인지방우정청	경기도 수원시 권선구 호매실로 22-55	37.2587056	126.9711223	수원금곡(취)	1753.994289	경기남양우체국	14908	수원금곡(취)	1753
20	경찰청우체국	서울 서대문구 통일로 97 (미근동)	37.5623976	126.96701	서울미근동(취)	380.7311282	검단우체국	25967	서울이화여자대학교우체국	1499
21	고양가좌동(취)	경기 고양시 일산서구 송산로 393 (가좌동)	37.6858862	126.7194845	고양대화동우체국	3219.265511	검단우체국	10755	고양일산우체국	5362
22	고양대화동우체국	경기 고양시 일산서구 일산로 664 (대화동)	37.6829634	126.7555092	고양주엽동우체국	1469.753334	고양가좌동(취)	3219	고양일산2동우체국	1496
23	고양덕양우체국	경기 고양시 덕양구 백양로 132 (화정동)	37.6370937	126.8353187	고양화정2동(취)	1165.37477	고양대화동우체국	8732	가평조종우체국	49819
24	고양마두1동(취)	경기 고양시 일산동구 일산로 284 (마두동)	37.6611309	126.7864856	국립암센터(취)	425.2754989	고양대화동우체국	3668	고양풍산동우체국	1187
25	고양백석동우체국	경기 고양시 일산동구 강송로 123 (백석동)	37.6498208	126.7859323	고양우편집중국	1082.605522	고양마두1동(취)	1256	고양주교동우체국	3828
26	고양본동우체국	경기 고양시 덕양구 벽제관로 24 (고양동)	37.7038666	126.901705	양주장흥우체국	3659.859756	고양덕양우체국	9473	고양덕양우체국	9473
27	고양삼송동(취)	경기도 고양시 덕양구 삼원로 15(삼송동)	37.6513258	126.8937965	고양지축동(취)	1158.762553	고양덕양우체국	5433	고양지축동(취)	1158
28	고양식사동(취)	경기 고양시 일산동구 위시티1로 7 상가2동 108호(식사동)	37.6755423	126.8114578	고양풍산동우체국	1549.17431	고양마두1동(취)	2736	고양풍산동우체국	1549
29	고양우편집중국	경기 고양시 일산동구 호수로 366(백석동)	37.6403518	126.7888593	국립암센터(취)	2695.372999	고양백석동우체국	1082	고양백석동우체국	1082
30	고양일산2동우체국	경기 고양시 일산서구 원일로 90 (일산2동)	37.6855998	126.7720131	고양중산우체국	1032.507778	고양대화동우체국	1496	고양중산우체국	1032
31	고양일산우체국	경기 고양시 일산동구 중앙로 1293 (장항동)	37.6612053	126.7713441	국립암센터(취)	1158.632077	고양마두1동(취)	1346	국립암센터(취)	1158
32	고양정발산동우체국	경기 고양시 일산동구 일산로 425 (정발산동)	37.6723516	126.7790138	국립암센터(취)	989.6594491	고양마두1동(취)	1411	국립암센터(취)	989
33	고양주교동우체국	경기 고양시 덕양구 호국로 793 (주교동)	37.6513522	126.8289517	고양화정2동(취)	2638.205012	고양덕양우체국	1680	고양덕양우체국	1680
34	고양주엽동우체국	경기 고양시 일산서구 주화로 80 (주엽동)	37.6700826	126.7593515	국립암센터(취)	2265.767515	고양일산우체국	1451	고양일산우체국	1451
35	고양중산우체국	경기 고양시 일산동구 중산로 226 (중산동)	37.6919881	126.7804558	국립암센터(취)	3087.392288	고양일산2동우체국	1032	고양정발산동우체국	2183
36	고양지축동(취)	경기 고양시 덕양구 삼송로 293 (지축동)	37.6529379	126.9066735	서울은평우체국	2200.126962	고양삼송동(취)	1158	고양본동우체국	5669
37	고양풍산동우체국	경기 고양시 일산동구 숲속마을로 56(풍동)	37.6675738	126.7971513	국립암센터(취)	1242.225156	고양마두1동(취)	1187	고양백석동우체국	2208
38	고양행신3동우체국	경기 고양시 덕양구 중앙로558번길 84 (행신동)	37.6265689	126.8387943	고양화정2동(취)	812.2823005	고양덕양우체국	1208	고양화정2동(취)	812
39	고양행신동우체국	경기 고양시 덕양구 충경로 34 (행신동)	37.6151267	126.8332975	고양화정2동(취)	1418.587555	고양행신3동우체국	1360	고양행신3동우체국	1360
40	고양화전동우체국	경기 고양시 덕양구 중앙로 181 (화전동)	37.6016125	126.8724282	서울수색우체국	3077.441184	고양행신동우체국	3788	고양화정2동(취)	4765
41	고양화정2동(취)	경기 고양시 덕양구 성신로 10 (화정동)	37.6275887	126.8297472	서울방화동우체국	5468.94674	고양행신3동우체국	812	고양덕양우체국	1165
42	고촌우체국	경기 김포시 고촌읍 은행영사정로5번길 54 (신곡리1070)	37.6024711	126.7704332	인천계양1동우체국	4180.462485	고양우편집중국	4511	고양우편집중국	4511
43	과천문원단지(취)	경기도 과천시 문원청계길 17-12 (문원동)	37.4248519	127.0092055	과천우체국	1396.417973	경찰청우체국	15718	과천우체국	1396
44	과천부림(취)	경기 과천시 부림2길 3-14 (부림동)	37.4377525	126.9962923	과천우체국	1571.96952	과천문원단지(취)	1835	과천우체국	1571
45	과천우면(취)	경기 과천시 장군마을길 32 (주암동)	37.4628985	127.0332886	서울서초우체국	1050.851466	과천부림(취)	4313	과천부림(취)	4313
46	과천우체국	경기 과천시 별양로 54 (별양동)	37.4237583	126.9935586	정부과천청사우체국	853.8004413	과천문원단지(취)	1396	정부과천청사우체국	853
47	광명우체국	경기 광명시 범안로 1017 (하안동)	37.4501755	126.8616936	광명철산동우체국	2511.365381	과천부림(취)	12046	광명철산동우체국	2511
48	광명철산1동(취)	경기 광명시 사성로103번길 14 (철산동)	37.4910463	126.8665218	서울구로1동우체국	683.3802985	광명우체국	4556	광명철산동우체국	2262
49	광명철산동우체국	경기 광명시 광덕산로 35-1 (하안동)	37.4711735	126.8722235	광명철산역전(취)	731.3479268	광명철산1동(취)	2262	정부과천청사우체국	11149
50	광명철산역전(취)	경기 광명시 철산로 5 (철산동)	37.4761269	126.8667981	서울가산디지털우체국	1230.910856	광명철산동우체국	731	광명철산동우체국	731
51	광운대학교(취)	서울 노원구 광운로 20(월계동)	37.6194277	127.05982	서울석관1동(취)	891.666667	경찰청우체국	10399	서울공릉2(취)	1894
52	광적우체국	경기 양주시 광적면 가래비6길 6	37.8234174	126.9858636	백석우체국	2443.921173	경기파주우체국	15056	동두천지행동우체국	9784
53	광화문우체국	서울특별시 종로구 종로 6 (서린동)	37.5699016	126.9782049	서울지방우정청	16.57104499	경찰청우체국	1297	서울지방우정청	16
54	교동우체국	인천광역시 강화군 교동면 교동남로 61	37.7784427	126.2824188	삼산우체국	8972.548131	강화우체국	18605	강화우체국	18605
55	교하우체국	경기 파주시 돌단풍길 12 (문발동)	37.7194577	126.7115047	파주동패(취)	1133	고양가좌동(취)	3792	파주동패(취)	1133
56	구리갈매우체국	경기 구리시 갈매길 97	37.6286625	127.1100272	서울신내동우체국	2166	광운대학교(취)	4579	고양지축동(취)	18279
57	구리교문동우체국	경기 구리시 안골로 32 (교문동)	37.5970367	127.1345779	구리수택동우체국	852	구리갈매우체국	4133	구리우체국	1072
58	구리수택3동(취)	경기 구리시 검배로 128 (토평동)	37.5938596	127.1519605	구리수택동우체국	1018	구리교문동우체국	1585	구리우체국	1414
59	구리수택동우체국	경기 구리시 체육관로74번길 51 (수택동)	37.5912968	127.1409583	구리우체국	1441	구리교문동우체국	852	구리교문동우체국	852
60	구리우체국	경기 구리시 건원대로34번길 34 (인창동)	37.6042103	127.1426683	미금도농(취)	1050	구리교문동우체국	1072	구리갈매우체국	3973
61	국립암센터(취)	경기 고양시 일산동구 일산로 323 (마두동)	37.6642972	126.7837913	파주운정동우체국	7346	고양마두1동(취)	425	고양마두1동(취)	425
62	국방부구내우체국	서울특별시 용산구 이태원로 22 (용산동3가)	37.5343751	126.9749436	서울용산우체국	738	경찰청우체국	3188	서울남영동우체국	1188
63	국제우편물류센터	인천광역시 중구 공항동로193번길 40-32(운서동)	37.4679633	126.4743241	인천운서동우체국	3056	검단우체국	22927	북도우체국	8374
64	국회구내우체국	서울특별시 영등포구 의사당대로 1 (여의도동)	37.5197489	126.9297194	서울여의대방로(취)	128	국방부구내우체국	4336	서울여의대방로(취)	128
65	군자우체국	경기 시흥시 군자로 510 (거모동)	37.3446274	126.7847262	안산유통상가(취)	2456	광명우체국	13566	시흥정왕동우체국	3235
66	군포금정동우체국	경기 군포시 당산로136번길 14 (금정동)	37.3636219	126.9452216	군포산본1동(취)	984	과천우체국	7937	정부과천청사우체국	7845
67	군포당정(취)	경기 군포시 봉성로 81(당정동)	37.3520261	126.953742	안양호계3동(취)	1395	군포금정동우체국	1493	군포금정동우체국	1493
68	군포대야미동(취)	경기 군포시 대야1로11번길 1 하나로프라자 106호 (대야미동)	37.3266562	126.9182364	군포오금동우체국	2616	군포당정(취)	4229	군포금정동우체국	4752
69	군포산본1동(취)	경기 군포시 산본천로215번길 5(산본1동)	37.3717901	126.9408881	군포산본2동우체국	579	군포금정동우체국	984	군포산본2동우체국	579
70	군포산본2동우체국	경기 군포시 산본로386번길 77 (산본2동)	37.3704899	126.9345727	군포우체국	1152	군포산본1동(취)	579	군포우체국	1152
71	군포오금동우체국	경기 군포시 번영로 382(산본동)	37.3494099	126.9259541	군포우체국	1389	군포금정동우체국	2328	군포금정동우체국	2328
72	군포우체국	경기 군포시 산본로 328(금정동)	37.3601123	126.9340704	안양호계현대(취)	2032	군포금정동우체국	1065	군포금정동우체국	1065
73	김포감정동(취)	경기 김포시 봉화로 169(감정동 663)	37.627081	126.7027017	김포북변동우체국	950	검단우체국	4202	김포우체국	3459
74	김포대곶우체국	경기 김포시 대곶면 율생중앙로 7(율생리 521-1)	37.6489363	126.5829425	양곡우체국	3648	검단우체국	10345	김포장기동우체국	7550
75	김포북변동우체국	경기 김포시 북변중로 22 (북변동)	37.6240351	126.7126915	김포풍무동(취)	2217	김포감정동(취)	950	김포감정동(취)	950
76	김포우체국	경기 김포시 김포한강11로 157(운양동 1432-1)	37.6517426	126.6788969	김포장기동우체국	1577	김포감정동(취)	3459	고양가좌동(취)	5232
77	김포장기동우체국	경기 김포시 김포한강1로 28-9 (장기동 1649)	37.6409914	126.6672888	인천불로(취)	3242	김포우체국	1577	김포우체국	1577
78	김포풍무동(취)	경기 김포시 풍무로 109(풍무동 109-5)	37.6054699	126.7219101	인천원당우체국	2637	김포북변동우체국	2217	김포북변동우체국	2217
79	남부천우체국	경기 부천시 경인로 162 (송내동)	37.4836197	126.7734906	부천심곡동우체국	395	광명철산1동(취)	8312	광명철산1동(취)	8312
80	남양주별내동우체국	경기도 남양주시 별내3로 68	37.6692449	127.1159823	퇴계원우체국	3395	구리갈매우체국	4534	퇴계원우체국	3395
81	남양주오남(취)	경기 남양주시 오남읍 진건오남로 564	37.6834	127.2129057	진접우체국	3977	남양주별내동우체국	8759	남양주우체국	4377
82	남양주왕숙천(취)	경기 남양주시 경춘로 381	37.6373116	127.2182144	남양주우체국	2064	남양주오남(취)	5136	남양주우체국	2064
83	남양주우체국	경기 남양주시 경춘로 1288(평내동)	37.648779	127.236498	남양주호평(취)	979	남양주왕숙천(취)	2064	구리수택3동(취)	9676
84	남양주장현(취)	경기 남양주시 진접읍 장현로107번길 6-1	37.7199431	127.1837534	진접우체국	856	남양주오남(취)	4813	남양주오남(취)	4813
85	남양주청학(취)	경기 남양주시 별내면 청학로중앙길 29	37.7089644	127.1163024	의정부민락동우체국	4050	남양주별내동우체국	4408	구리갈매우체국	8929
86	남양주호평(취)	경기 남양주시 호평로46번길 5	37.654675	127.244699	마석우체국	5479	남양주우체국	979	남양주우체국	979
87	남인천우체국	인천광역시 남동구 경인로 514 (간석동)	37.4603539	126.6964571	인천주안4동(취)	926	남부천우체국	7319	인천구월아파트(취)	2585
88	단월우체국	경기 양평군 단월면 재인동길 2-8	37.5326999	127.6740271	양평청운우체국	4026	경기용문우체국	9366	개군우체국	17016
89	대부우체국	경기 안산시 단원구 대부중앙로 93 (대부북동)	37.2431932	126.5843171	영흥우체국	10206	경기남양우체국	20885	시흥우체국	16472
90	대신우체국	경기 여주시 대신면 여양로 1430-7	37.3735142	127.5893231	이포우체국	5318	개군우체국	7456	이포우체국	5318
91	대진대학교(취)	경기 포천시 호국로 1007	37.871337	127.1566485	포천선단(취)	2054	광적우체국	16088	포천선단(취)	2054
92	대청우체국	인천광역시 옹진군 대청면 대청로7번길 31	37.8235743	124.717688	백령소청우체국	6710	교동우체국	139207	교동우체국	139207
93	덕소우체국	경기 남양주시 와부읍 덕소로71번길 12	37.5875597	127.211922	서울강일동우체국	4276	구리수택3동(취)	5376	미금지금(취)	4650
94	덕적우체국	인천광역시 옹진군 덕적면 덕적북로133번길 40	37.2259671	126.1437244	영흥우체국	29179	대부우체국	39218	대부우체국	39218
95	동대문우체국	서울특별시 동대문구 천호대로 4 (신설동)	37.5748675	127.0259969	서울용두1동(취)	909	광화문우체국	4284	서울용두1동(취)	909
96	동두천광암동출장소	경기 동두천시 광암로17번길 40 (광암동)	37.8968244	127.0842774	동두천지행동우체국	2847	대진대학교(취)	7028	남양주청학(취)	21042
97	동두천우체국	경기 동두천시 평화로 2518 (생연동)	37.9125494	127.0580907	동두천중앙동우체국	878	동두천광암동출장소	2909	동두천중앙동우체국	878
98	동두천중앙동우체국	경기 동두천시 중앙로273번길 23 (생연동)	37.9059674	127.0525971	제92군사우편출장소	942	동두천우체국	878	제92군사우편출장소	942
99	동두천지행동우체국	경기 동두천시 중앙로 136 (지행동)	37.8935753	127.0525081	제92군사우편출장소	1305	동두천중앙동우체국	1375	제92군사우편출장소	1305
100	동서울우편집중국	서울특별시 광진구 자양로 76 (자양동) 동서울우편집중국	37.5355128	127.0861265	서울광진우체국	457	동대문우체국	6903	서울광진우체국	457
101	동수원우체국	경기도 수원시 팔달구 인계로 143 (인계동)	37.2673098	127.0336569	수원권선동우체국	1125	경인지방우정청	5641	수원권선동우체국	1125
102	마도우체국	경기 화성시 마도면 두곡서길 3	37.2059041	126.775002	사강우체국	3298	경기남양우체국	3602	경기남양우체국	3602
103	마석우체국	경기 남양주시 화도읍 마석로 11	37.6518846	127.3062288	서종우체국	6363	남양주호평(취)	5479	남양주호평(취)	5479
104	매송우체국	경기 화성시 매송면 화성로 2223	37.2493238	126.9093415	수원금곡(취)	4869	경인지방우정청	5590	수원금곡(취)	4869
105	모현우체국	경기 용인시 처인구 모현읍 백옥대로 2366 (모현읍 왕산리)	37.3341991	127.2505719	용인한국외국어대학교(취)	1744	경기광주태전(취)	6843	경기광주태전(취)	6843
106	문산우체국	경기 파주시 문산읍 문향로 46	37.8560913	126.7857399	탄현우체국	8485	경기파주우체국	3794	파주운정동우체국	14475
107	미금도농(취)	경기 남양주시 미금로 42	37.609166	127.1527398	미금지금(취)	1280	구리우체국	1050	구리우체국	1050
108	미금지금(취)	경기 남양주시 경춘로490번길 16-9	37.6092043	127.1671378	퇴계원우체국	4771	미금도농(취)	1280	구리수택3동(취)	2172
109	백령소청우체국	인천광역시 옹진군 대청면 소청동로 88-40	37.7708382	124.7546171	백령우체국	22399	대청우체국	6710	대청우체국	6710
110	백령우체국	인천광역시 옹진군 백령면 백령로 270	37.9709383	124.7216729	연평우체국	93846	대청우체국	16358	대청우체국	16358
111	백사우체국	경기 이천시 백사면 현방로 71	37.3395248	127.4916702	여주흥천(취)	4548	대신우체국	9466	이포우체국	7004
112	백석우체국	경기 양주시 백석읍 부흥로1036번길 26	37.8049597	127.0008559	양주1동우체국	4727	광적우체국	2443	광적우체국	2443
113	백암우체국	경기 용인시 처인구 백암면 백암로201번길 16 (백암면)	37.1648863	127.3734053	원삼우체국	5612	모현우체국	21733	안성삼죽(취)	10051
114	병점우체국	경기 화성시 떡전골로 98	37.2072343	127.0341035	한신대학교(취)	1805	동수원우체국	6667	한신대학교(취)	1805
115	보개우체국	경기 안성시 삼거리길 17(가사동)	37.0083756	127.283669	안성우체국	1841	백암우체국	19114	안성공단(취)	3965
116	봉담우체국	경기 화성시 봉담읍 동화새터길 111	37.2168553	126.9611754	화성와우(취)	1534	경인지방우정청	4727	매송우체국	5849
117	봉일천우체국	경기 파주시 조리읍 봉천로 49-2	37.7436714	126.8061846	파주우체국	3598	고양중산우체국	6175	파주우체국	3598
118	부천고강동우체국	경기 부천시 고리울로8번길 21 (고강본동)	37.5267976	126.8170032	부천성곡(취)	1011	광명철산1동(취)	5926	광명철산1동(취)	5926
119	부천도당동우체국	경기 부천시 수도로 202(도당동)	37.5196478	126.7875753	부천우편집중국	1175	부천고강동우체국	2734	부천춘의동(취)	1546
120	부천상동우체국	경기 부천시 부흥로 76 (상동)	37.4970291	126.7508923	인천지법부천지원우체국	824	남부천우체국	2500	부천심곡동우체국	2498
121	부천성곡(취)	경기 부천시 소사로 697 (원종동)	37.5302109	126.8064523	부천원종동(취)	347	부천고강동우체국	1011	부천고강동우체국	1011
122	부천소사로우체국	경기 부천시 소사로 88 (소사본동)	37.4665977	126.7986844	부천역곡동우체국	2498	남부천우체국	2930	부천역곡동우체국	2498
123	부천심곡동우체국	경기 부천시 부일로 412 (심곡동)	37.4866526	126.7758325	부천역전우체국	775	남부천우체국	395	남부천우체국	395
124	부천약대동(취)	경기 부천시 중동로 380-5 (약대동)	37.5137162	126.7703954	부천테크노파크(취)	789	부천도당동우체국	1663	부천테크노파크(취)	789
125	부천역곡동우체국	경기 부천시 부일로 717 (역곡동)	37.487639	126.8086881	서울성공회대학교(취)	1464	부천소사로우체국	2498	부천심곡동우체국	2923
126	부천역전우체국	경기 부천시 경인로 266 (심곡본동)	37.4798751	126.7737141	인천지법부천지원우체국	1957	남부천우체국	416	남부천우체국	416
127	부천오정동우체국	경기 부천시 오정로 262 (오정동)	37.5303572	126.7875603	부천우편집중국	456	부천도당동우체국	1188	부천우편집중국	456
128	부천옥길동(취)	경기 부천시 양지로 125	37.5034138	126.7660309	부천우체국	593	부천약대동(취)	1207	부천우체국	593
129	부천우체국	경기 부천시 소향로 103(중동)	37.5028825	126.7593913	인천지법부천지원우체국	1232	부천옥길동(취)	593	부천상동우체국	996
130	부천우편집중국	경기 부천시 오정로 211번길 40(오정동)	37.5294443	126.7825484	부천테크노파크(취)	2024	부천오정동우체국	456	부천도당동우체국	1175
131	부천원종동(취)	경기 부천시 소사로794번길 11 (원종동)	37.5271926	126.8054007	서울신월3동우체국	2230	부천성곡(취)	347	부천성곡(취)	347
132	부천중2동우체국	경기 부천시 조마루로 254 (중동)	37.497797	126.771801	인천지법부천지원우체국	1425	부천옥길동(취)	807	부천옥길동(취)	807
133	부천춘의동(취)	경기 부천시 부천로 243 (춘의동)	37.5057594	126.786091	부천테크노파크(취)	2428	부천도당동우체국	1546	부천심곡동우체국	2308
134	부천테크노파크(취)	경기 부천시 석천로 345 (삼정동)	37.5187422	126.7641038	인천삼산동우체국	2561	부천약대동(취)	789	부천춘의동(취)	2428
135	부평우체국	인천 부평구 길주로 415(청천동)	37.5088433	126.7085023	인천산곡2동우체국	683	부천상동우체국	3990	인천작전동우체국	2767
136	부평현대아파트우체국	인천광역시 부평구 경원대로 1269-1 (산곡3동)	37.4906504	126.7094423	인천산곡2동우체국	1339	부평우체국	2020	부평우체국	2020
137	북내우체국	경기 여주시 북내면 여양2로 287-1	37.3285217	127.6802441	여주오학(취)	3721	강천우체국	7111	여주오학(취)	3721
138	북도우체국	인천광역시 옹진군 북도면 시도로 97	37.5333103	126.4272291	인천운서동우체국	7031	국제우편물류센터	8374	온수우체국	13148
139	사강우체국	경기 화성시 송산면 송산포도로 90	37.213807	126.7392398	안산공단(취)	11225	마도우체국	3298	마도우체국	3298
140	삼산우체국	인천광역시 강화군 삼산면 삼산북로463번길 8	37.7038927	126.3214719	양도우체국	9899	교동우체국	8972	교동우체국	8972
141	상면우체국	경기 가평군 상면 청군로 1107 (상면우체국)	37.8050403	127.3564257	청평우체국	9469	가평조종우체국	1556	가평우체국	14020
142	상명대학교(취)	서울특별시 종로구 홍지문2길 20 (홍지동)	37.6041771	126.9556929	서울세검정우체국	515	광화문우체국	4298	서울세검정우체국	515
143	서강대학교(취)	"서울 마포구 백범로 35, 204호(우정원)"	37.5509442	126.9410023	서울노고산동(취)	481	경찰청우체국	2638	서울서부지방법원우체국	1137
144	서대문우체국	"서울특별시 서대문구 성산로20길 9(창천동,서대문우체국)"	37.5607847	126.9321408	서울동교동(취)	461	서강대학교(취)	1346	서울동교동(취)	461
145	서안양우체국	경기 안양시 만안구 안양로 233 (안양동)	37.3936543	126.9250137	안양진흥(취)	601	군포산본2동우체국	2707	안양4동우체국	824
146	서울A.I.D아파트(취)	서울특별시 강남구 삼성로 635(삼성동)	37.517418	127.0537145	서울삼성2동(취)	662	동서울우편집중국	3512	서울청담청하(취)	931
147	서울가락극동(취)	서울특별시 송파구 동남로 208(가락동)	37.4957107	127.1324576	서울문정로데오	1056	동서울우편집중국	6039	하남우체국	1243
148	서울가락본동우체국	서울특별시 송파구 송파대로30길 36(가락동)	37.4955962	127.1196205	서울문정로데오	811	서울가락극동(취)	1141	서울문정로데오	811
149	서울가산디지털우체국	서울특별시 금천구 가산디지털2로 108 (가산동)	37.4777658	126.8804909	서울독산1동(취)	1625	광명철산동우체국	1037	광명철산동우체국	1037
150	서울가양동우체국	서울 강서구 허준로 95-5(가양2동)	37.5672285	126.8515584	서울강서우체국	966	고양화전동우체국	4243	서울염창동우체국	2033
151	서울갈현1동(취)	서울특별시 은평구 갈현로 277(갈현동)	37.6216069	126.9165505	서울불광2동(취)	513	고양지축동(취)	3586	고양지축동(취)	3586
152	서울강남우체국	서울특별시 강남구 개포로 619(개포동)	37.4935453	127.0780601	서울대치우성(취)	456	서울A.I.D아파트(취)	3421	과천우면(취)	5235
153	서울강동우체국	서울특별시 강동구 양재대로112길 57(길동)	37.536347	127.143149	서울둔촌2동(취)	544	서울가락극동(취)	4608	서울둔촌2동(취)	544
154	서울강북우체국	서울시 강북구 솔매로50길 55	37.6241045	127.0284021	서울삼양동우체국	894	광운대학교(취)	2841	서울삼양동우체국	894
155	서울강서우체국	서울특별시 강서구 강서로 448(등촌동)	37.5651626	126.8409989	서울등촌동우체국	953	서울가양동우체국	966	서울등촌동우체국	953
156	서울강일동우체국	서울특별시 강동구 아리수로91길 12(강일동)	37.564718	127.1731798	서울명일동현대(취)	2210	구리수택3동(취)	3744	서울명일동현대(취)	2210
157	서울개포현대(취)	서울특별시 강남구 개포로17길 6(개포동)	37.4789275	127.0465095	서울양재동우체국	1006	과천우면(취)	2132	과천우면(취)	2132
158	서울경안(취)	서울특별시 광진구 자양로 242 (구의동)	37.5479247	127.0888761	서울광진우체국	1139	동서울우편집중국	1398	서울광진우체국	1139
159	서울고척동우체국	서울특별시 구로구 중앙로 76 (고척동)	37.5044001	126.8617869	서울오류역전(취)	1647	광명철산1동(취)	1540	광명철산1동(취)	1540
160	서울공덕2동(취)	서울 마포구 마포대로14길 14-1(공덕동)	37.5481463	126.9563959	서울서부지방법원우체국	279	서강대학교(취)	1403	서울서부지방법원우체국	279
161	서울공릉2(취)	서울 노원구 공릉로 168(공릉2동)	37.6249568	127.0799773	서울공릉동우체국	550	광운대학교(취)	1894	구리갈매우체국	2703
162	서울공릉동우체국	서울 노원구 동일로 988(공릉1동)	37.6248346	127.0737922	서울신내동우체국	1718	서울공릉2(취)	550	서울공릉2(취)	550
163	서울공항동우체국	서울 강서구 공항대로 41(공항동)	37.5595411	126.8120794	서울공항이주단지(취)	410	서울강서우체국	2645	서울발산동우체국	2077
164	서울공항이주단지(취)	서울 강서구 방화대로7길 40(공항동)	37.556165	126.8139699	서울마곡동(취)	1739	서울공항동우체국	410	서울공항동우체국	410
165	서울관악신사동(취)	서울 관악구 조원로 118(신림동) 서울관악신사동우편취급국	37.484988	126.915506	서울보라매동(취)	1086	서울가산디지털우체국	3214	서울보라매동(취)	1086
166	서울관악우체국	서울특별시 관악구 남부순환로 1643(신림동)	37.4849557	126.9331347	서울신림동부(취)	0	서울관악신사동(취)	1567	서울청룡동(취)	0
167	서울관훈동(취)	서울특별시 종로구 삼봉로 81 (수송동)	37.5723555	126.9818018	서울지방우정청	436	광화문우체국	420	서울지방우정청	436
168	서울광나루(취)	서울특별시 광진구 광장로 80 (광장동)	37.547667	127.1059766	서울광진우체국	1765	서울경안(취)	1520	서울광진우체국	1765
169	서울광진우체국	서울특별시 광진구 강변역로 2 (구의동) 서울광진우체국	37.5377348	127.0904594	서울아산병원(취)	1994	동서울우편집중국	457	서울성내1동우체국	3071
170	서울교대역(취)	서울특별시 서초구 반포대로28길 72 (서초3동)	37.4916005	127.0123559	서울서초3동우체국	437	서울개포현대(취)	3346	서울서초3동우체국	437
171	서울구로1동우체국	서울특별시 구로구 구일로 64 (구로동)	37.491841	126.8741439	서울동구로우체국	1417	광명철산1동(취)	683	광명철산1동(취)	683
172	서울구로5동(취)	서울특별시 구로구 공원로 71 (구로동)	37.5027694	126.8881996	서울동구로우체국	884	서울구로1동우체국	1741	광명철산1동(취)	2325
173	서울구로디지털단지우체국	서울특별시 구로구 디지털로26길 144 (구로동)	37.4832626	126.8984659	서울대림동우체국	890	서울관악신사동(취)	1527	서울동구로우체국	1510
174	서울구로우체국	서울시 구로구 금오로 931(천왕동)	37.4825206	126.8339172	서울성공회대학교(취)	970	부천역곡동우체국	2313	부천역곡동우체국	2313
175	서울금천우체국	서울특별시 금천구 시흥대로 410 (독산동)	37.4699278	126.8985328	서울독산1동(취)	655	서울구로디지털단지우체국	1479	서울독산1동(취)	655
176	서울금호동우체국	서울특별시 성동구 금호로11길 2 (금호동2가)	37.554787	127.019688	서울신당현대(취)	633	동대문우체국	2298	동대문우체국	2298
177	서울낙성대(취)	서울 관악구 낙성대역3길 17	37.4758909	126.9624427	서울행운동우체국	877	서울관악우체국	2793	서울봉천동우체국	1306
178	서울남부지방법원출장소	서울시 양천구 신월로 386 (신정1동)	37.5216216	126.8636208	서울신정1동우체국	150	서울고척동우체국	1918	서울화곡4동우체국	1199
179	서울남영동우체국	서울특별시 용산구 두텁바위로 6-1 (남영동)	37.5449381	126.9727745	서울청파3가(취)	723	국방부구내우체국	1188	서울공덕2동(취)	1499
180	서울내수동(취)	서울특별시 종로구 새문안로3길 30 (내수동)	37.5726979	126.973265	서울지방우정청	534	광화문우체국	537	서울지방우정청	534
181	서울노고산동(취)	서울시 마포구 신촌로20길 9(노고산동)	37.554699	126.938293	서울동교동(취)	911	서강대학교(취)	481	서강대학교(취)	481
182	서울노량진1동(취)	"서울특별시 동작구 장승배기로 136(노량진동, 일등속셈학원) 1층"	37.5096091	126.9403373	서울상도동우체국	652	국회구내우체국	1468	서울상도동우체국	652
183	서울노원우체국	서울특별시 노원구 중계로 123(중계본동)	37.6462539	127.0808354	서울중계동우체국	474	서울공릉2(취)	2364	서울중계동우체국	474
184	서울녹번동(취)	서울특별시 은평구 통일로 684(녹번동)	37.6087143	126.9348782	서울대조동우체국	859	상명대학교(취)	1917	서울연신내우체국	1060
185	서울논현2동(취)	서울특별시 강남구 언주로146길 3 2층(논현동)	37.5198413	127.0350465	서울영동우체국	695	서울A.I.D아파트(취)	1681	서울미성아파트(취)	1140
186	서울논현거평(취)	서울특별시 강남구 봉은사로 129 지하1층(논현동)	37.5058943	127.0285906	서울역삼1동우체국	755	서울논현2동(취)	1650	서울도곡서린(취)	1952
187	서울능동(취)	서울특별시 광진구 면목로 17-1 (군자동)	37.557044	127.0749524	서울성수동우체국	2231	서울경안(취)	1598	서울광진우체국	2548
188	서울다동(취)	"서울특별시 중구 남대문로 117, 지하1층 (다동)"	37.567727	126.982302	서울지방우정청	441	광화문우체국	436	광화문우체국	436
189	서울당산2동(취)	서울특별시 영등포구 당산로 172-1 (당산동4가)	37.5295731	126.8994121	서울영등포시범A(취)	749	국회구내우체국	2906	서울여의도광장우체국	1784
190	서울대림1동(취)	서울특별시 영등포구 대림로 146 (대림동)	37.4941172	126.9007627	서울대림동우체국	601	서울구로디지털단지우체국	1221	서울동구로우체국	993
191	서울대림동우체국	서울특별시 영등포구 대림로 85 (대림동)	37.4896319	126.9045544	서울동구로우체국	1449	서울대림1동(취)	601	서울대림1동(취)	601
192	서울대조동우체국	서울특별시 은평구 통일로71길 20(대조동)	37.6128308	126.9266893	서울역촌동(취)	787	서울녹번동(취)	859	서울역촌동(취)	787
193	서울대치4동(취)	서울특별시 강남구 도곡로69길 14 101호(대치동)	37.4982176	127.0559733	서울상록회관우체국	1046	서울강남우체국	2030	서울도곡서린(취)	1408
194	서울대치우성(취)	서울특별시 강남구 남부순환로 2917 2층(대치동)	37.4975757	127.0770289	서울잠실우성(취)	1090	서울강남우체국	456	서울강남우체국	456
195	서울도곡서린(취)	서울특별시 강남구 도곡로28길 8(도곡동)	37.4920451	127.042132	서울양재동우체국	905	서울대치4동(취)	1408	서울개포현대(취)	1506
196	서울도봉1동우체국	서울시 도봉구 도봉로 871	37.6821735	127.0453447	서울북부지방법원우체국	578	서울노원우체국	5084	서울방학동우체국	1847
197	서울도봉우체국	서울특별시 도봉구 노해로 150	37.6497784	127.03332	서울쌍문한양(취)	562	서울강북우체국	2882	서울쌍문한양(취)	562
198	서울독산1동(취)	서울특별시 금천구 범안로 1175	37.4666527	126.8923939	서울시흥1동우체국	1466	서울금천우체국	655	서울시흥1동우체국	1466
199	서울동교동(취)	서울 마포구 신촌로4길 3(동교동)	37.557654	126.9287319	서울창전동우체국	1120	서대문우체국	461	서강대학교(취)	1320
200	서울동구로우체국	서울특별시 구로구 구로중앙로18길 5 (구로동)	37.4948853	126.8896294	서울신길3동(취)	1362	서울구로5동(취)	884	서울구로5동(취)	884
201	서울동부지방법원우체국	"서울특별시 송파구 법원로 101 (문정동), 민원동 1층"	37.4835658	127.1198336	서울문정로데오	714	서울가락본동우체국	1335	서울문정로데오	714
202	서울동소문동우체국	서울 성북구 성북로2길 31 (동소문동1가)	37.5896795	127.0078711	서울혜화동우체국	766	동대문우체국	2301	경찰청우체국	4729
203	서울동작우체국	서울특별시 동작구 여의대방로22길 77 서울동작우체국	37.4979867	126.9245045	서울보라매동(취)	757	서울관악우체국	1637	서울보라매동(취)	757
204	서울둔촌2동(취)	서울특별시 강동구 양재대로 102길11(둔촌동)	37.5327414	127.1389885	서울천호3동(취)	844	서울강동우체국	544	서울천호3동(취)	844
205	서울등촌동우체국	서울 강서구 화곡로63길 90(등촌3동)	37.5587907	126.8481987	서울발산동우체국	1290	서울강서우체국	953	서울가양동우체국	982
206	서울뚝섬우체국	서울특별시 성동구 뚝섬로3길 14(성수동1가)	37.5413946	127.0495314	서울성수동우체국	621	서울A.I.D아파트(취)	2686	서울청담청하(취)	1853
207	서울마곡동(취)	서울시 강서구 양천로30길 14(마곡동)	37.5701023	126.8229233	서울방화동우체국	1283	서울공항동우체국	1517	서울방화동우체국	1283
208	서울마포우체국	서울시 마포구 마포대로 89 포스트타워	37.5616079	126.9821021	서울중앙우체국	14	서울다동(취)	679	서울지방우정청	977
209	서울망원동우체국	서울 마포구 월드컵로 111(망원동)	37.5523625	126.9054781	서울서교동우체국	930	서울동교동(취)	2149	서울서교동우체국	930
210	서울면목2동(취)	서울시 중랑구 중랑천로 64 (면목동)	37.5909975	127.0732833	서울중랑우체국	974	광운대학교(취)	3374	서울중화동우체국	1210
211	서울명일동삼익(취)	서울특별시 강동구 천중로51길 102(명일동)	37.5453498	127.1451976	서울명일동우체국	634	서울강동우체국	1015	서울명일동우체국	634
212	서울명일동우체국	서울특별시 강동구 구천면로 424-9(명일동)	37.5510546	127.1447767	서울암사3동(취)	806	서울명일동삼익(취)	634	서울암사3동(취)	806
213	서울명일동현대(취)	서울특별시 강동구 동남로71길 23(명일동)	37.5519842	127.1540639	서울암사3동(취)	1490	서울명일동우체국	832	서울명일동우체국	832
214	서울모래내우체국	서울 서대문구 거북골로 160 (북가좌동)	37.5759972	126.9123697	서울성산동우체국	764	서대문우체국	2437	서울성산동우체국	764
215	서울목동동신아파트(취)	서울특별시 양천구 목동중앙북로1길 46 (목동)	37.5505403	126.8648813	서울염창동우체국	655	서울등촌동우체국	1743	서울염창동우체국	655
216	서울무역센터우체국	"서울특별시 강남구 영동대로 51, B1층(삼성동, 코엑스몰)"	37.5116833	127.059108	서울삼성2동(취)	503	서울A.I.D아파트(취)	796	서울삼성2동(취)	503
217	서울무지개아파트(취)	서울특별시 서초구 효령로77길 34	37.4919329	127.0288672	서울역삼우성(취)	400	서울도곡서린(취)	1179	서울역삼우성(취)	400
218	서울문래동우체국	서울특별시 영등포구 도림로 429 (문래동2가)	37.5131269	126.8932877	서울문래현대A(취)	1214	서울구로5동(취)	1235	서울구로5동(취)	1235
219	서울문래현대A(취)	서울특별시 영등포구 문래로4길 4 (문래동6가)	37.520374	126.8830537	서울양평1가(취)	579	서울문래동우체국	1214	서울문래동우체국	1214
220	서울문정동우체국	서울특별시 송파구 중대로 20(문정2동)	37.4900317	127.1114077	서울문정로데오	1112	서울가락본동우체국	956	서울가락본동우체국	956
221	서울문정로데오	서울특별시 송파구 동남로4길 10(문정1동) 정락신협 1층	37.4891302	127.1238742	서울송파한양(취)	1656	서울동부지방법원우체국	714	서울가락극동(취)	1056
222	서울미근동(취)	서울시 서대문구 서소문로 21 충정타워 지하1층(충현동 464)	37.5598732	126.9641102	서울소공동우체국	1232	경찰청우체국	380	경찰청우체국	380
223	서울미성아파트(취)	서울특별시 강남구 압구정로 134 110호(신사동)	37.5243111	127.0234993	서울신사현대(취)	58	서울논현2동(취)	1140	서울신사현대(취)	58
224	서울반포4동(취)	서울특별시 서초구 서래로10길 1 (반포4동)	37.499385	126.9984819	서울신반포(취)	859	서울교대역(취)	1505	서울방배동우체국	954
225	서울반포주공(취)	서울특별시 서초구 서초중앙로 224 (반포동)	37.5017333	127.013169	서울법원청사우체국	651	서울교대역(취)	1126	서울법원청사우체국	651
226	서울발산동우체국	서울 강서구 강서로 283(내발산동)	37.5546422	126.834636	서울화곡5동(취)	1238	서울등촌동우체국	1290	부천고강동우체국	3465
227	서울방배동우체국	서울특별시 서초구 방배로 238 (방배동)	37.494347	126.9897827	서울사당우성(취)	1240	서울반포4동(취)	954	서울사당우성(취)	1240
228	서울방이동우체국	서울특별시 송파구 오금로 187(방이동)	37.5117647	127.1260868	서울송파우체국	810	서울가락극동(취)	1869	서울송파한양(취)	1285
229	서울방학2동(취)	서울시 도봉구 도당로13길 29-14	37.6655763	127.034123	서울방학동우체국	812	서울도봉우체국	1754	서울창5동우체국	1709
230	서울방학동우체국	서울시 도봉구 도봉로 686	37.6656075	127.0432594	서울쌍문2동우체국	1147	서울방학2동(취)	812	서울방학2동(취)	812
231	서울방화동우체국	서울 강서구 금낭화로26길 22(방화3동)	37.579753	126.8149691	서울화곡5동(취)	4521	서울마곡동(취)	1283	서울공항동우체국	2257
232	서울번3동우체국	서울시 강북구 한천로105길 27	37.6255925	127.046224	서울송천동우체국	1861	광운대학교(취)	1388	광운대학교(취)	1388
233	서울법원청사우체국	"서울특별시 서초구 서초중앙로 157 (서초동, 서울중앙지방법원)"	37.4960544	127.011322	서울서초3동우체국	815	서울교대역(취)	502	서울교대역(취)	502
234	서울보라매동(취)	"서울 관악구 보라매로3길 29(봉천동, 해태보라매타워 2층) 서울보라매동우편취급국"	37.491172	126.9249803	서울신림동부(취)	1000	서울동작우체국	757	서울신림동우체국	2790
235	서울봉천동우체국	서울 관악구 관악로 249-1(봉천동) 서울봉천동우체국	37.486739	126.956724	서울행운동우체국	683	서울낙성대(취)	1306	과천부림(취)	6475
236	서울북부지방법원우체국	서울시 도봉구 마들로 749	37.67712	127.0469489	서울상계10동우체국	2120	서울도봉1동우체국	578	서울도봉1동우체국	578
237	서울불광2동(취)	서울특별시 은평구 통일로80길 15(불광동)	37.6202618	126.9220775	서울역촌동(취)	1295	서울갈현1동(취)	513	서울갈현1동(취)	513
238	서울사당우성(취)	서울특별시 동작구 동작대로29길 77 (사당동)	37.4886098	126.9778127	서울행운동우체국	2230	서울방배동우체국	1240	서울봉천동우체국	1886
239	서울삼각산동(취)	서울시 강북구 삼양로19길 59 대선빌딩 101호	37.6156962	127.0193252	서울삼양동우체국	907	서울강북우체국	1233	서울삼양동우체국	907
240	서울삼성1동(취)	서울특별시 강남구 영동대로96길 37 203호(삼성동)	37.5116326	127.0655128	서울잠실우성(취)	849	서울무역센터우체국	569	서울무역센터우체국	569
241	서울삼성2동(취)	서울특별시 강남구 삼성로107길 5(삼성동)	37.511453	127.053451	서울해청아파트(취)	949	서울무역센터우체국	503	서울A.I.D아파트(취)	662
242	서울삼양동우체국	서울시 강북구 삼양로 229	37.623833	127.0183507	서울송천동우체국	1361	서울강북우체국	894	서울송천동우체국	1361
243	서울삼청동우체국	서울특별시 종로구 북촌로 112 (삼청동)	37.587395	126.9847662	성균관대학교(취)	739	서울관훈동(취)	1689	서울지방우정청	2041
244	서울상계10동우체국	서울 노원구 노원로 510(상계10동)	37.6612189	127.0601815	서울상계6동우체국	889	서울방학동우체국	1581	서울공릉2(취)	4392
245	서울상계6동우체국	서울 노원구 노해로 448(상계6동)	37.6534145	127.0579037	서울창동동아(취)	716	서울상계10동우체국	889	서울상계10동우체국	889
246	서울상도동우체국	서울특별시 동작구 상도로 236 (상도동)	37.5049649	126.9448422	서울신길7동(취)	1958	서울노량진1동(취)	652	서울은천동우체국	2143
247	서울상록회관우체국	서울특별시 강남구 언주로 508 1F(역삼동)	37.5001298	127.0444508	서울역삼성보(취)	932	서울도곡서린(취)	920	서울도곡서린(취)	920
248	서울상봉1동(취)	서울시 중랑구 상봉중앙로1길 12 (상봉동)	37.5995979	127.0873868	서울중랑우체국	608	서울면목2동(취)	1575	서울중화동우체국	664
249	서울상암동(취)	서울특별시 마포구 월드컵북로 352(상암동 115-1)	37.5769007	126.8931528	서울수색우체국	612	서울모래내우체국	1711	서울성산동우체국	1621
250	서울서교동우체국	서울 마포구 양화로 62(서교동)	37.5503343	126.9156286	서울창전동우체국	928	서울망원동우체국	930	서울동교동(취)	1420
251	서울서부지방법원우체국	서울 마포구 마포대로 174(공덕동)	37.5493527	126.9536426	서울청파3가(취)	1048	서울공덕2동(취)	279	서울보라매동(취)	6941
252	서울서초1동우체국	서울특별시 서초구 효령로60길 13 (서초동)	37.4848996	127.0187592	서울서초2동(취)	927	서울교대역(취)	936	서울서초2동(취)	927
253	서울서초2동(취)	서울특별시 서초구 서운로 19 (서초2동)	37.4856657	127.0291519	서울양재동우체국	773	서울무지개아파트(취)	695	서울양재동우체국	773
254	서울서초3동우체국	서울특별시 서초구 반포대로 99 (서초3동)	37.4890301	127.008631	서울서초구진(취)	640	서울교대역(취)	437	서울역삼우성(취)	2055
255	서울서초구진(취)	서울특별시 서초구 효령로 224 (서초3동)	37.4832553	127.008523	서울역삼우성(취)	2360	서울서초3동우체국	640	서울서초3동우체국	640
256	서울서초우체국	서울특별시 서초구 동산로 19 (양재동) 서울서초우체국	37.469881	127.041272	서울양재동우체국	1671	과천우면(취)	1050	과천우면(취)	1050
257	서울석관1동(취)	서울 성북구 한천로 584 (석관동)	37.6116136	127.0621531	서울중화동우체국	2011	광운대학교(취)	891	광운대학교(취)	891
258	서울성공회대학교(취)	서울특별시 구로구 연동로 320 (항동)	37.4877355	126.825157	서울오류역전(취)	2123	서울구로우체국	970	서울구로우체국	970
259	서울성내1동우체국	서울특별시 강동구 양재대로 1309(성내동)	37.5338624	127.1246613	서울천호3동(취)	1256	서울둔촌2동(취)	1279	서울천호3동(취)	1256
260	서울성동우체국	서울특별시 성동구 왕십리로 303 (행당동)	37.5597309	127.0297129	서울왕십리우체국	785	서울금호동우체국	1046	서울왕십리우체국	785
261	서울성북우체국	서울특별시 성북구 동소문로 310 (하월곡동)	37.6050277	127.028272	서울송천동우체국	1163	서울삼각산동(취)	1426	서울송천동우체국	1163
262	서울성산2동우체국	서울 마포구 월드컵북로 227(성산동)	37.565725	126.908906	서울성산유원(취)	327	서울모래내우체국	1180	서울성산동우체국	437
263	서울성산동우체국	서울 마포구 월드컵북로 112(성산동)	37.5696624	126.9089923	서울성산유원(취)	318	서울성산2동우체국	437	서울망원동우체국	1945
264	서울성산유원(취)	서울 마포구 월드컵북로26길 17(성산동)	37.5677159	126.9116201	서울연희동우체국	1786	서울성산동우체국	318	서울성산동우체국	318
265	서울성수동우체국	서울특별시 성동구 아차산로 104 (성수동2가)	37.5444502	127.0553861	서울청담청하(취)	2274	서울뚝섬우체국	621	서울뚝섬우체국	621
266	서울세검정우체국	서울특별시 종로구 세검정로 258 (신영동)	37.6008707	126.9597652	서울홍제동우체국	2493	상명대학교(취)	515	서울녹번동(취)	2377
267	서울소공동우체국	"서울특별시 중구 남대문로1길 34, 1층 (북창동)"	37.5625399	126.9775618	서울중앙우체국	417	서울마포우체국	416	서울마포우체국	416
268	서울송천동우체국	서울시 강북구 도봉로 71	37.6154577	127.0295465	서울쌍문한양(취)	3271	서울삼각산동(취)	909	광운대학교(취)	2727
269	서울송파우체국	서울특별시 송파구 오금로 323(오금동)	37.5057714	127.1312871	서울송파한양(취)	1330	서울방이동우체국	810	서울방이동우체국	810
270	서울송파한양(취)	서울특별시 송파구 송이로 26(송파동)	37.502919	127.116754	하남우체국	2541	서울가락본동우체국	851	서울가락극동(취)	1609
271	서울수색우체국	서울특별시 은평구 수색로 248(수색동)	37.5817114	126.8965324	서울신사미성(취)	1496	서울상암동(취)	612	서울상암동(취)	612
272	서울수유동우체국	서울시 강북구 삼양로 468	37.6448989	127.0159534	서울쌍문한양(취)	1395	서울도봉우체국	1636	서울삼양동우체국	2347
273	서울시범아파트(취)	"서울특별시 용산구 이촌로14길 16 (이촌2동,시범아파트)"	37.5280113	126.9543063	서울용문동우체국	926	국방부구내우체국	1966	서울용문동우체국	926
274	서울시흥1동우체국	서울특별시 금천구 독산로 123 (시흥동)	37.4581964	126.9050617	서울시흥동우체국	683	서울금천우체국	1425	서울구로디지털단지우체국	2842
275	서울시흥3동(취)	서울특별시 금천구 시흥대로 77 (시흥동)	37.4409565	126.9029003	서울시흥동우체국	1367	서울시흥1동우체국	1922	서울시흥동우체국	1367
276	서울시흥동우체국	서울특별시 금천구 시흥대로 217 (시흥동)	37.4531467	126.9006686	서울신림동우체국	3920	서울시흥1동우체국	683	서울시흥1동우체국	683
277	서울신길2동(취)	서울특별시 영등포구 도신로 195 (신길동)	37.5116246	126.912955	서울신길7동(취)	1053	국회구내우체국	1741	서울신길3동(취)	1423
278	서울신길3동(취)	서울특별시 영등포구 가마산로51길 1 (신길동)	37.5033917	126.9006742	서울영등포3동(취)	2151	서울대림1동(취)	1029	서울구로5동(취)	1111
279	서울신길7동(취)	서울특별시 영등포구 영등포로 422 (신길동)	37.5122564	126.9247831	서울여의대방로(취)	934	국회구내우체국	940	서울여의대방로(취)	934
280	서울신내동우체국	서울시 중랑구 신내로17길 112 (신내동)	37.6170135	127.090468	서울중화동우체국	2057	서울공릉2(취)	1283	서울공릉2(취)	1283
281	서울신당동우체국	서울특별시 중구 다산로 128-8 (신당동)	37.5548573	127.011259	서울퇴계로5가우체국	814	서울금호동우체국	749	서울금호동우체국	749
282	서울신당현대(취)	서울특별시 중구 다산로36나길 7 (신당동)	37.5604955	127.0195162	서울창신1동(취)	1356	서울금호동우체국	633	서울금호동우체국	633
283	서울신림동부(취)	서울특별시 관악구 문성로31길 38(신림동) 서울신림동부우편취급국	37.484961	126.933138	서울청룡동(취)	0	서울관악우체국	0	서울청룡동(취)	0
284	서울신림동우체국	서울 관악구 대학5길 38(신림동) 서울신림동우체국	37.4690982	126.940016	서울행운동우체국	1840	서울관악우체국	1863	서울행운동우체국	1840
285	서울신반포(취)	서울특별시 서초구 신반포로 177 (잠원동)	37.5060582	127.0033885	서울신사현대(취)	2650	서울반포4동(취)	859	서울반포4동(취)	859
286	서울신사미성(취)	서울특별시 은평구 은평터널로7길 2(신사동)	37.5926726	126.9063284	서울은평현대(취)	973	서울수색우체국	1496	서울은평현대(취)	973
287	서울신사현대(취)	서울특별시 강남구 강남대로 620 206호(신사동)	37.524124	127.022883	서울영동우체국	1416	서울미성아파트(취)	58	용산전자단지우체국	5172
288	서울신월2동우체국	서울특별시 양천구 중앙로 309 (신월동)	37.5235756	126.8508603	서울신정1동우체국	1004	서울남부지방법원출장소	1155	서울신정1동우체국	1004
289	서울신월3동우체국	서울특별시 양천구 남부순환로 364 (신월동)	37.5346316	126.8287077	서울화곡3동(취)	837	부천고강동우체국	1356	서울화곡3동(취)	837
290	서울신정1동우체국	서울특별시 양천구 신월로 368 (신정동)	37.521853	126.8619551	서울화곡4동우체국	1170	서울남부지방법원출장소	150	서울남부지방법원출장소	150
291	서울신촌우체국	서울 서대문구 신촌로 161 (대현동)	37.5606558	126.9465796	서울이화여자대학교우체국	519	서울노고산동(취)	989	서강대학교(취)	1186
292	서울쌍문2동우체국	서울시 도봉구 도봉로125길 88	37.656309	127.037626	서울창5동우체국	675	서울도봉우체국	819	서울창5동우체국	675
293	서울쌍문한양(취)	서울시 도봉구 도봉로103길 10	37.6448882	127.0316465	서울창5동우체국	1246	서울도봉우체국	562	서울창5동우체국	1246
294	서울아산병원(취)	서울특별시 송파구 올림픽로43길 88(풍납2동)	37.526922	127.108381	서울천호3동(취)	2893	서울성내1동우체국	1639	서울성내1동우체국	1639
295	서울안국동우체국	서울특별시 종로구 율곡로 49 (안국동)	37.5777233	126.9836103	서울통의동우체국	934	서울관훈동(취)	617	서울관훈동(취)	617
296	서울암사3동(취)	서울특별시 강동구 고덕로27길 28(암사동)	37.5559112	127.1380327	서울천호3동(취)	1762	서울명일동우체국	806	구리수택동우체국	3935
297	서울양재동우체국	서울특별시 서초구 남부순환로 356길 5(양재동) 2층	37.4846765	127.0377593	서울역삼우성(취)	1352	서울서초2동(취)	773	서울도곡서린(취)	905
298	서울양천우체국	서울특별시 양천구 목동서로 117 (목동)	37.5325686	126.8759272	서울화곡4동우체국	1193	서울문래현대A(취)	1494	서울화곡4동우체국	1193
299	서울양평1가(취)	서울특별시 영등포구 선유서로26길 24 (양평동1가)	37.5240535	126.8876716	서울영등포3동(취)	1712	서울문래현대A(취)	579	서울문래현대A(취)	579
300	서울여의대방로(취)	서울특별시 영등포구 여의대방로 379 (여의도동)	37.5190914	126.9309136	여의도우체국	878	국회구내우체국	128	여의도우체국	878
301	서울여의도광장우체국	서울특별시 영등포구 국회대로68길 7 (여의도동)	37.5294223	126.9194817	여의도우체국	662	국회구내우체국	1407	서울창전동우체국	2118
302	서울역삼1동우체국	서울특별시 강남구 테헤란로 131(역삼동)	37.5000287	127.0329141	서울역삼우성(취)	568	서울논현거평(취)	755	서울논현거평(취)	755
303	서울역삼성보(취)	"서울특별시 강남구 선릉로 519, 2층(역삼동)"	37.5079152	127.0404957	서울해청아파트(취)	755	서울상록회관우체국	932	서울논현거평(취)	1081
304	서울역삼우성(취)	서울특별시 강남구 테헤란로4길 46(역삼동)	37.4953323	127.0303725	서울영동우체국	2072	서울무지개아파트(취)	400	서울역삼1동우체국	568
305	서울역촌동(취)	서울특별시 은평구 갈현로 94(역촌동)	37.6087908	126.9194059	서울응암1동우체국	1074	서울대조동우체국	787	서울갈현1동(취)	1444
306	서울연신내우체국	서울특별시 은평구 연서로 306(불광동)	37.6181782	126.9365216	서울응암1동우체국	2072	서울대조동우체국	1056	서울갈현1동(취)	1815
307	서울연희동우체국	서울 서대문구 증가로 12 (연희동)	37.5695231	126.9315855	서울이화여자대학교우체국	1764	서대문우체국	971	서울동교동(취)	1341
308	서울염창동우체국	서울 강서구 공항대로 623(염창동)	37.5554133	126.8690436	서울화곡4동우체국	2619	서울목동동신아파트(취)	655	서울화곡4동우체국	2619
309	서울영동우체국	서울특별시 강남구 학동로 212(논현동)	37.5139273	127.0324644	서울해청아파트(취)	972	서울논현2동(취)	695	서울논현2동(취)	695
310	서울영등포3동(취)	"서울특별시 영등포구 양산로 214 (영등포동5가, 영등포현대프라자)"	37.5221501	126.9067833	서울영등포시범A(취)	694	서울당산2동(취)	1052	서울영등포시범A(취)	694
311	서울영등포시범A(취)	서울특별시 영등포구 버드나루로19길 3 (당산동)	37.5283625	126.9077059	서울전경련(취)	1271	서울영등포3동(취)	694	서울당산2동(취)	749
312	서울오류역전(취)	서울특별시 구로구 경인로20길 13 (오류동)	37.4954036	126.8470424	서울화곡4동우체국	4329	서울고척동우체국	1647	광명철산1동(취)	1798
313	서울옥수동(취)	"서울특별시 성동구 독서당로 173 (옥수동, 극동그린아파트 상가)"	37.5420106	127.0102726	서울퇴계로5가우체국	1649	서울신당동우체국	1428	서울금호동우체국	1646
314	서울왕십리우체국	서울특별시 성동구 마장로 194 (홍익동)	37.5654865	127.0348508	서울용두1동(취)	1296	서울성동우체국	785	서울용두1동(취)	1296
315	서울용두1동(취)	서울특별시 동대문구 정릉천동로 58 롯데캐슬피렌체 상가 113호 (용두동)	37.5771457	127.0358247	서울제기동우체국	687	동대문우체국	909	서울제기동우체국	687
316	서울용문동우체국	서울특별시 용산구 원효로41길 47 (원효로3가)	37.5353044	126.959382	서울용산우체국	671	서울시범아파트(취)	926	용산전자단지우체국	1190
317	서울용산우체국	서울특별시 용산구 한강대로 118 (한강로2가)	37.5337273	126.9666747	용산전자단지우체국	932	서울용문동우체국	671	서울용문동우체국	671
318	서울은천동우체국	서울 관악구 봉천로27길 58(봉천동) 서울은천동우체국	37.4858218	126.9416698	서울청룡동(취)	764	서울신림동부(취)	764	서울행운동우체국	1285
319	서울은평우체국	서울특별시 은평구 진관2로 29-8(진관동)	37.6361626	126.9198605	서울응암1동우체국	3932	서울갈현1동(취)	1641	서울갈현1동(취)	1641
320	서울은평현대(취)	서울특별시 은평구 은평로 60(신사동)	37.5985458	126.9144604	서울응암동우체국	894	서울신사미성(취)	973	서울응암1동우체국	1142
321	서울을지로4가우체국	"서울특별시 중구 을지로 154-2 (을지로4가), ☎ 02-2265-3117"	37.5670145	126.9978305	서울종로5가우체국	531	서울다동(취)	1382	서울종로5가우체국	531
322	서울응암1동우체국	"서울특별시 은평구 은평로 170 1층(응암동,상현빌딩)"	37.6011777	126.9268794	서울응암동우체국	1397	서울역촌동(취)	1074	서울역촌동(취)	1074
323	서울응암동우체국	서울특별시 은평구 응암로 214(응암동)	37.5909271	126.9177495	서울홍제동우체국	3012	서울은평현대(취)	894	서울은평현대(취)	894
324	서울이화여자대학교우체국	서울 서대문구 이화여대길 52 (대현동)	37.5642551	126.9503079	서울홍제동우체국	1770	서울신촌우체국	519	서울신촌우체국	519
325	서울일원본동우체국	서울특별시 강남구 광평로20길 8(일원본동)	37.4830532	127.0865019	서울잠실우성(취)	2902	서울강남우체국	1385	서울강남우체국	1385
326	서울잠실우성(취)	서울특별시 송파구 올림픽로4길 48(잠실7동)프리마상가 205	37.5068555	127.0729819	서울해청아파트(취)	2758	서울삼성1동(취)	849	서울삼성1동(취)	849
327	서울전경련(취)	서울특별시 영등포구 여의대로 24 지하1층	37.5222075	126.9197669	여의도우체국	432	서울여의도광장우체국	801	서울여의도광장우체국	801
328	서울제기2동(취)	서울특별시 동대문구 안암로 86 (제기동)	37.5833223	127.0305254	서울제기동우체국	540	서울용두1동(취)	831	서울제기동우체국	540
329	서울제기동우체국	서울특별시 동대문구 고산자로 476 오성빌딩 (제기동)	37.5833116	127.0366022	서울창신2동(취)	2235	서울제기2동(취)	540	서울동소문동우체국	2650
330	서울종로5가우체국	서울특별시 종로구 종로 207-1 (종로5가)	37.5711458	127.0008561	서울창신1동(취)	1246	서울을지로4가우체국	531	서울창신2동(취)	1411
331	서울중계동우체국	서울 노원구 한글비석로 286(중계본동)	37.6425901	127.0835819	서울창동동아(취)	3104	서울노원우체국	474	서울공릉2(취)	1982
332	서울중랑우체국	서울특별시 중랑구 망우로 271 (상봉동)	37.5957576	127.0824964	서울중화동우체국	569	서울상봉1동(취)	608	서울중화동우체국	569
333	서울중앙우체국	서울특별시 중구 소공로 70 (충무로1가)	37.5617378	126.9821467	서울충무로2가우체국	642	서울마포우체국	14	서울마포우체국	14
334	서울중화동우체국	서울시 중랑구 동일로 784 (중화동)	37.6004812	127.0800002	서울창동동아(취)	6212	서울중랑우체국	569	서울석관1동(취)	2011
335	서울지방우정청	서울 종로구 종로 6 광화문우체국	37.5698001	126.9780682	서울통의동우체국	1037	광화문우체국	16	경찰청우체국	1281
336	서울창5동우체국	서울시 도봉구 노해로 309	37.6517903	127.0427103	서울창동동아(취)	682	서울쌍문2동우체국	675	서울상계6동우체국	1362
337	서울창동동아(취)	서울시 도봉구 노해로 384 1층	37.6511681	127.050345	퇴계원우체국	8243	서울창5동우체국	682	서울창5동우체국	682
338	서울창신1동(취)	서울특별시 종로구 종로 328 (창신동)	37.572123	127.0148186	서울창신2동(취)	961	동대문우체국	1039	서울창신2동(취)	961
339	서울창신2동(취)	서울특별시 종로구 낙산길 198 (창신동)	37.5804209	127.0117238	서울혜화동우체국	1151	서울창신1동(취)	961	서울동소문동우체국	1083
340	서울창전동우체국	"서울특별시 마포구 독막로 109(상수동95-3, 홍익대학교 사회교육관 1층)"	37.5478695	126.9256141	여의도우체국	2598	서울서교동우체국	928	서울서교동우체국	928
341	서울천호3동(취)	서울특별시 강동구 성안로 191(천호동)	37.540081	127.1364712	하남우체국	4472	서울강동우체국	724	서울명일동우체국	1424
342	서울청담청하(취)	서울특별시 강남구 도산대로 507 207호(청담동)	37.5247108	127.0485212	서울해청아파트(취)	1240	서울A.I.D아파트(취)	931	서울신사현대(취)	2280
343	서울청룡동(취)	서울 관악구 쑥고개로 88(봉천동) 서울청룡동우편취급국	37.484961	126.933138	서울행운동우체국	1971	서울신림동부(취)	0	서울은천동우체국	764
344	서울청파3가(취)	서울특별시 용산구 청파로47길 7 (청파동3가)	37.5463644	126.9648311	서울후암동우체국	1227	서울남영동우체국	723	서울남영동우체국	723
345	서울충무로2가우체국	서울특별시 중구 삼일대로6길 5 (충무로2가)	37.562505	126.989311	서울퇴계로5가우체국	1387	서울중앙우체국	642	서울마포우체국	648
346	서울통의동우체국	서울특별시 종로구 자하문로 30 (통의동)	37.5782677	126.9731239	성균관대학교(취)	2031	서울내수동(취)	618	서울내수동(취)	618
347	서울퇴계로5가우체국	서울특별시 중구 퇴계로 270 (장충동2가)	37.5553677	127.0021234	서울후암동우체국	2256	서울신당동우체국	814	서울신당동우체국	814
348	서울해청아파트(취)	서울특별시 강남구 학동로56길 45(삼성동)	37.5143172	127.0433865	용산전자단지우체국	7101	서울역삼성보(취)	755	서울역삼성보(취)	755
349	서울행운동우체국	서울 관악구 남부순환로 1841(봉천동) 서울행운동우체국	37.480795	126.954696	용산전자단지우체국	5037	서울봉천동우체국	683	서울봉천동우체국	683
350	서울혜화동우체국	서울특별시 종로구 혜화로 1 (혜화동)	37.5858505	127.0006907	성균관대학교(취)	692	서울동소문동우체국	766	성균관대학교(취)	692
351	서울홍제동우체국	서울 서대문구 통일로 419 (홍제동)	37.5801662	126.9488595	성균관대학교(취)	4008	서울이화여자대학교우체국	1770	서울이화여자대학교우체국	1770
352	서울화곡3동(취)	서울 강서구 화곡로 13길28(화곡3동)	37.541133	126.8334863	서울화곡5동(취)	732	서울신월3동우체국	837	서울발산동우체국	1502
353	서울화곡4동우체국	서울 강서구 곰달래로 265(화곡4동)	37.5323949	126.8624998	서울화곡5동(취)	2371	서울신정1동우체국	1170	서울발산동우체국	3497
354	서울화곡5동(취)	서울 강서구 화곡로31길 52(우장산동)	37.5445354	126.8405477	여의도우체국	7720	서울화곡3동(취)	732	서울화곡3동(취)	732
355	서울후암동우체국	서울특별시 용산구 후암로 58-1 (후암동)	37.5510955	126.9773096	용산전자단지우체국	3055	서울남영동우체국	793	서울남영동우체국	793
356	서인천우체국	인천 서구 서곶로 318(심곡동)	37.542376	126.6825141	인천청라1동우체국	2791	부평우체국	4380	인천계산동우체국	3690
357	서종우체국	경기 양평군 서종면 하문호길 3	37.6058317	127.3488643	양평양서우체국	7196	경기조안우체국	5261	경기조안우체국	5261
358	서탄우체국	평택시 서탄면 금암2길 126	37.1077259	127.0351234	평택하북(취)	2562	병점우체국	11043	제309군사우편출장소	3167
359	선원우체국	인천광역시 강화군 선원면 대문고개로 18	37.7131939	126.4841026	양도우체국	7878	강화갑곳리(취)	3551	강화갑곳리(취)	3551
360	설악우체국	경기 가평군 설악면 신천중앙로 109 (설악우체국)	37.6772806	127.491333	청평우체국	9127	서종우체국	14943	가평우체국	17154
361	성균관대학교(취)	서울특별시 종로구 성균관로 25-2 (명륜3가)	37.5871833	126.9930833	용산전자단지우체국	7297	서울혜화동우체국	692	서울삼청동우체국	739
362	성남가천대학교(취)	경기 성남시 수정구 성남대로 1342(복정동)	37.4525268	127.1326255	성남태평4동(취)	554	서울동부지방법원우체국	3627	성남태평2동(취)	726
363	성남고등동우체국	경기 성남시 수정구 대왕판교로982번길 2(고등동)	37.4277609	127.1024274	성남수진2동(취)	2410	성남가천대학교(취)	3842	성남야탑동우체국	3060
364	성남공단우체국	경기 성남시 중원구 둔촌대로 484(상대원동) 시콕스타워 B106	37.431225	127.1705826	성남상대원우체국	1386	성남가천대학교(취)	4120	성남하대원아파트(취)	1522
365	성남구미동우체국	경기 성남시 분당구 돌마로90번길 6-3 (구미동)	37.3493337	127.1115359	성남우편집중국	320	성남고등동우체국	8741	성남구미무지개(취)	1474
366	성남구미무지개(취)	"경기 성남시 분당구 구미로100 B03호(구미동, 굿모닝프라자)"	37.3382933	127.120772	용인죽전2동(취)	1087	성남구미동우체국	1474	경기광주태전(취)	11141
367	성남금광동우체국	경기 성남시 중원구 광명로 311(금광동)	37.444131	127.1604939	성남상대원우체국	536	성남공단우체국	1689	위례우체국	1492
368	성남금광래미안(취)	경기 성남시 중원구 황송로 77(금광동)	37.4491138	127.1708165	성남금동(취)	449	성남금광동우체국	1071	성남금동(취)	449
369	성남금동(취)	경기 성남시 중원구 금빛로100번길 2(금광동)	37.4505728	127.1661002	성남우체국	636	성남금광래미안(취)	449	성남금광동우체국	871
370	성남도촌동우체국	경기 성남시 중원구 도촌북로 30 (도촌동)	37.4168248	127.1532625	성남야탑목련(취)	1291	성남공단우체국	2219	성남야탑목련(취)	1291
371	성남분당우체국	경기 성남시 분당구 황새울로 347(서현동) 성남분당우체국	37.386837	127.123127	성남서현1동우체국	541	성남도촌동우체국	4272	성남서현1동우체국	541
372	성남상대원우체국	경기 성남시 중원구 희망로 377(상대원동)	37.4394727	127.1588735	성남하대원아파트(취)	1084	성남금광동우체국	536	성남금광동우체국	536
373	성남서현1동우체국	경기 성남시 분당구 중앙공원로39번길 31 (서현동)	37.3826946	127.1263357	성남수내동우체국	1303	성남분당우체국	541	성남수내동우체국	1303
374	성남서현2동우체국	경기 성남시 분당구 분당로263번길 49 (서현동)	37.372514	127.1409383	성남수내동우체국	1722	성남서현1동우체국	1721	성남수내동우체국	1722
375	성남수내동우체국	경기 성남시 분당구 내정로166번길 27 (수내동)	37.3715736	127.121602	성남한솔마을(취)	907	성남서현1동우체국	1303	성남구미무지개(취)	3694
376	성남수진2동(취)	경기 성남시 수정구 모란로 69(수진동)	37.439171	127.1255033	성남수진동우체국	647	성남가천대학교(취)	1611	성남태평2동(취)	1531
377	성남수진동우체국	경기 성남시 수정구 산성대로 97(수진동)	37.4397282	127.1327574	성남수진역(취)	704	성남수진2동(취)	647	성남수진2동(취)	647
378	성남수진역(취)	경기 성남시 수정구 탄리로 8 (신흥동)	37.4381397	127.1404249	성남중원(취)	863	성남수진동우체국	704	성남수진동우체국	704
379	성남야탑동우체국	경기 성남시 분당구 장미로86번길 17 (야탑동)	37.4120296	127.1307035	성남야탑목련(취)	1945	성남도촌동우체국	2075	성남서현2동우체국	4478
380	성남야탑목련(취)	경기 성남시 분당구 판교로 700 분당테크노파크 (야탑동)	37.4053354	127.1509295	성남탑마을(취)	1041	성남도촌동우체국	1291	성남탑마을(취)	1041
381	성남우체국	"우편,예금,보험 - 경기도 성남시 수정구 산성대로 305 2층, 우편물교부 - 경기도 성남시 수정구 산성대로 301"	37.4541227	127.1604842	위례우체국	1396	성남금동(취)	636	성남금동(취)	636
382	성남우편집중국	경기 성남시 분당구 성남대로 57 (구미동)	37.3464596	127.111221	용인죽전2동(취)	1344	성남구미동우체국	320	성남구미동우체국	320
383	성남운중동우체국	경기 성남시 분당구 운중로138번길 7-1 (운중동)	37.3908579	127.0786765	성남정자동우체국	3564	성남분당우체국	3977	성남한솔마을(취)	3848
384	성남정든마을(취)	"경기 성남시 분당구 불정로 119 109호(정자동, 한진상가)"	37.3623109	127.117664	성남한솔마을(취)	872	성남수내동우체국	1085	성남한솔마을(취)	872
385	성남정자동우체국	경기 성남시 분당구 정자일로198번길 6 (정자동)	37.3676699	127.1064121	성남한솔마을(취)	513	성남정든마을(취)	1163	성남한솔마을(취)	513
386	성남중원(취)	경기 성남시 중원구 제일로 45(성남동)	37.4311567	127.1361365	성남하대원아파트(취)	1541	성남수진역(취)	863	성남수진역(취)	863
387	성남탑마을(취)	"경기 성남시 분당구 판교로 437 206호(야탑동,숭문상가)"	37.4050091	127.162634	성남하대원아파트(취)	2967	성남야탑목련(취)	1041	성남야탑동우체국	2943
388	성남태평2동(취)	경기 성남시 수정구 남문로 111(태평동)	37.4480977	127.1386448	성남태평4동(취)	295	성남가천대학교(취)	726	성남야탑동우체국	4064
389	성남태평4동(취)	경기 성남시 수정구 수정로 211-1(태평동)	37.4507593	127.1384631	위례우체국	631	성남태평2동(취)	295	성남태평2동(취)	295
390	성남하대원아파트(취)	경기 성남시 중원구 둔촌대로 319(하대원동)	37.430718	127.1534654	위례우체국	2278	성남상대원우체국	1084	성남수진역(취)	1422
391	성남한솔마을(취)	"경기 성남시 분당구 느티로 67 104호(정자동, 수내상가)"	37.3687475	127.1120262	용인동천동우체국	3782	성남정자동우체국	513	성남수내동우체국	907
392	송전우체국	경기 용인시 처인구 이동읍 경기동로705번길 13-11 (이동읍 송전리)	37.1396318	127.198321	용인남사우체국	5083	서탄우체국	14935	용인남사우체국	5083
393	송탄우체국	평택시 탄현로 336 (지산동)	37.082015	127.0566963	제309군사우편출장소	497	서탄우체국	3438	제309군사우편출장소	497
394	수원곡반정동(취)	경기 수원시 권선구 동수원로 146번길 199(곡반정동)	37.2419434	127.0331119	수원매탄(취)	1539	동수원우체국	2815	수원권선동우체국	2179
395	수원광교동우체국	경기도 수원시 영통구 혜령로 8 (이의동)	37.2837643	127.0510063	아주대학교(취)	402	동수원우체국	2390	아주대학교(취)	402
396	수원교동우체국	경기 수원시 팔달구 행궁로 63 (팔달로3가)	37.2771644	127.0142444	수원화서동우체국	845	동수원우체국	2043	수원화서동우체국	845
397	수원구운동(취)	경기 수원시 권선구 일월천로15번길(구운동)	37.2842215	126.9724705	수원성균관대학교(취)	1108	경인지방우정청	2834	수원금곡(취)	2048
398	수원권선동우체국	경기 수원시 권선구 경수대로 382(권선동)	37.2603223	127.0244782	수원매탄(취)	1200	동수원우체국	1125	군포당정(취)	11963
399	수원금곡(취)	경기 수원시 권선구 금호로 59-15(금곡동)	37.2701665	126.9575378	수원성균관대학교(취)	3079	경인지방우정청	1753	수원권선동우체국	6050
400	수원매탄(취)	경기도 수원시 영통구 동수원로 294(매탄동)	37.2555313	127.0365816	수원매탄3동우체국	548	수원권선동우체국	1200	수원권선동우체국	1200
401	수원매탄1동우체국	경기도 수원시 영통구 중부대로 242(매탄동)	37.2747923	127.0422887	수원법원우체국	979	동수원우체국	1130	수원법원우체국	979
402	수원매탄2동우체국	경기도 수원시 영통구 매영로 93-20(매탄동)	37.2687265	127.0528601	수원법원우체국	852	수원매탄1동우체국	1156	수원매탄3동우체국	1682
403	수원매탄3동우체국	경기도 수원시 영통구 동탄원천로881번길 66(매탄동)	37.2559244	127.042726	수원신동(취)	999	수원매탄(취)	548	수원매탄(취)	548
404	수원법원우체국	경기도 수원시 영통구 월드컵로 120 (원천동)	37.2764094	127.0531146	아주대학교(취)	969	수원광교동우체국	837	수원매탄2동우체국	852
405	수원북문우체국	경기 수원시 장안구 수성로 360(영화동)	37.2931679	127.0114675	수원화서동우체국	1377	수원교동우체국	1793	수원송죽동(취)	1569
406	수원성균관대학교(취)	경기 수원시 장안구 서부로 2066 성균관대학교 수원캠퍼스(천천동)	37.2939246	126.9754224	수원율전동우체국	992	수원구운동(취)	1108	수원구운동(취)	1108
407	수원세류동우체국	경기 수원시 권선구 덕영대로 1084(세류동)	37.2540132	127.0102873	수원역전우체국	1834	수원권선동우체국	1442	수원권선동우체국	1442
408	수원송죽동(취)	경기 수원시 장안구 경수대로995번길 8(송죽동)	37.3052124	127.0022056	수원정자동(취)	803	수원북문우체국	1569	수원구운동(취)	3523
409	수원신동(취)	경기도 수원시 영통구 신원로 33 (신동)	37.2541685	127.0537503	수원영통동우체국	902	수원매탄3동우체국	999	수원매탄3동우체국	999
410	수원역전우체국	경기 수원시 팔달구 향교로 13 (매산로1가)	37.2685912	127.0005569	수원화서아파트(취)	1205	수원교동우체국	1544	수원화서동우체국	1517
411	수원영통동우체국	경기도 수원시 영통구 영통로214번길 1 (영통동)	37.2465538	127.0573048	수원우편집중국	1883	수원신동(취)	902	수원신동(취)	902
412	수원우만1동(취)	경기 수원시 팔달구 월드컵로 361 (우만1동)	37.2895199	127.0309268	수원지동우체국	1120	수원북문우체국	1776	수원지동우체국	1120
413	수원우체국	경기 수원시 장안구 천천로 94 (천천동)	37.3001793	126.9842396	수원율전동우체국	976	수원성균관대학교(취)	1047	수원성균관대학교(취)	1047
414	수원우편집중국	경기 수원시 영통구 청명남로 57(영통동)	37.2542466	127.0761933	용인보라(취)	2908	수원영통동우체국	1883	수원곡반정동(취)	4066
415	수원율전동우체국	경기 수원시 장안구 하률로 6(천천동)	37.302764	126.9737405	수원정자동(취)	2132	수원우체국	976	수원우체국	976
416	수원정자동(취)	경기 수원시 장안구 장안로 286-2(정자동)	37.2991354	126.9972891	수원화서동우체국	2122	수원송죽동(취)	803	수원송죽동(취)	803
417	수원지동우체국	경기 수원시 팔달구 경수대로 603 (지동)	37.2794412	127.0302497	아주대학교(취)	1509	수원우만1동(취)	1120	수원권선동우체국	2182
418	수원지법평택지원우체국	평택시 평남로 1036 (동삭동)	37.0102159	127.0967513	평택우체국	1831	송탄우체국	8727	평택우체국	1831
419	수원화서동우체국	경기 수원시 팔달구 고화로 135 (화서동)	37.2814464	127.0063772	수원화서아파트(취)	702	수원교동우체국	845	수원북문우체국	1377
420	수원화서아파트(취)	경기 수원시 팔달구 화양로 8 (화서동)	37.2793767	126.9989078	아주대학교(취)	4255	수원화서동우체국	702	수원화서동우체국	702
421	시흥금바위(취)	경기 시흥시 시흥대로 1074	37.431476	126.7949838	시흥은행동우체국	1459	부천소사로우체국	3911	부천소사로우체국	3911
422	시흥대야동우체국	경기 시흥시 호현로 58 (대야동)	37.4452661	126.7856858	시흥은행동우체국	1269	시흥금바위(취)	1739	시흥은행동우체국	1269
423	시흥우체국	경기 시흥시 공단1대로 241 (정왕동)	37.3362825	126.7286249	시흥정왕동상가(취)	1963	군자우체국	5073	부천소사로우체국	15746
424	시흥은행동우체국	경기 시흥시 은행로 146 (은행동)	37.4440316	126.7998804	인천서창동우체국	4394	시흥대야동우체국	1269	시흥금바위(취)	1459
425	시흥정왕동상가(취)	경기 시흥시 옥구상가3길 23-11(정왕동)	37.353222	126.7222509	시흥정왕동우체국	2493	시흥우체국	1963	시흥우체국	1963
426	시흥정왕동우체국	경기 시흥시 군서마을로 32 (정왕동)	37.3449661	126.7483349	안산공단(취)	3356	시흥우체국	1999	시흥우체국	1999
427	시흥하중2(취)	경기 시흥시 하중로 233 (하중동)	37.3910366	126.8064581	안산와동(취)	5854	시흥금바위(취)	4602	시흥금바위(취)	4602
428	신갈우체국	경기 용인시 기흥구 신갈로58번길 16-1 (신갈동)	37.2721881	127.1076625	용인보라(취)	2268	수원우편집중국	3434	용인구성우체국	2687
429	신산우체국	경기 양주시 남면 개나리길 41	37.8951344	126.9735688	은현우체국	4867	동두천지행동우체국	7020	제92군사우편출장소	6219
430	아주대학교(취)	경기도 수원시 영통구 월드컵로 206(원천동)	37.2833633	127.0465105	용인상현(취)	5095	수원광교동우체국	402	수원법원우체국	969
431	안산고잔1동우체국	경기 안산시 단원구 광덕2로 186 (고잔동)	37.3094521	126.8313415	안산삼일빌딩(취)	1119	군자우체국	5693	군자우체국	5693
432	안산고잔2동우체국	경기 안산시 단원구 예술대학로 74 (고잔동)	37.3235654	126.8375564	안산삼일빌딩(취)	736	안산고잔1동우체국	1660	안산고잔1동우체국	1660
433	안산공단(취)	"경기 안산시 단원구 지원로 107, 110호 (성곡동, 관리동)"	37.3147239	126.7477219	안산유통상가(취)	4104	시흥우체국	2933	시흥우체국	2933
434	안산본오동우체국	경기 안산시 상록구 각골로 53 (본오동)	37.2941638	126.8723034	안산신안(취)	640	안산고잔1동우체국	4017	안산삼일빌딩(취)	3871
435	안산사동(취)	"경기 안산시 상록구 감골2로 44, 102호 (사동, 선경중심상가)"	37.291855	126.8502621	안산신안(취)	1466	안산본오동우체국	1976	안산본오동우체국	1976
436	안산삼일빌딩(취)	"경기 안산시 단원구 중앙대로 927, 105호 (고잔동, 남양빌딩)"	37.3171184	126.8395178	안산원초(취)	1282	안산고잔2동우체국	736	안산고잔2동우체국	736
437	안산상록수우체국	경기 안산시 상록구 용신로 364 (본오동)	37.3014426	126.8623239	안산신안(취)	627	안산본오동우체국	1199	안산신안(취)	627
438	안산신안(취)	"경기 안산시 상록구 반석로 44, 185호 (본오동, 신안프라자)"	37.2964825	126.8657103	안산일동우체국	1502	안산상록수우체국	627	안산본오동우체국	640
439	안산와동(취)	경기 안산시 단원구 와동공원로 92	37.3397512	126.8218981	안산우체국	1340	안산고잔2동우체국	2272	안산고잔2동우체국	2272
440	안산우체국	경기 안산시 단원구 중앙대로 815 (고잔동)	37.327678	126.8221758	안산원초(취)	718	안산와동(취)	1340	안산와동(취)	1340
441	안산원초(취)	경기 안산시 단원구 화랑로 88 우성연립	37.3222564	126.8266022	안산초지동우체국	1664	안산우체국	718	안산우체국	718
442	안산유통상가(취)	경기 안산시 단원구 풍전로 37-9 316동 116호	37.3234059	126.7925919	안산초지동우체국	2655	군자우체국	2456	군자우체국	2456
443	안산이동우체국	경기 안산시 상록구 중보로 41 (이동)	37.3071313	126.8515309	안산일동우체국	1548	안산상록수우체국	1148	안산상록수우체국	1148
444	안산일동우체국	경기도 안산시 상록구 성호로1길 12-2 안산일동우체국	37.3098142	126.8686263	안산초지동우체국	4603	안산상록수우체국	1084	안산상록수우체국	1084
445	안산초지동우체국	경기도 안산시 단원구 초지동로 65 안산초지동우체국	37.3094522	126.8168535	인천한화지구우체국	12104	안산고잔1동우체국	1288	안산고잔1동우체국	1288
446	안성공단(취)	경기 안성시 미양면 안성맞춤대로 685 (계륵리)	36.9801543	127.2563074	안성우체국	3212	보개우체국	3965	수원우편집중국	34376
447	안성삼죽(취)	"경기 안성시 삼죽면 삼백로5, (삼죽농협)"	37.0743293	127.3751037	원삼우체국	11728	백암우체국	10051	보개우체국	10938
448	안성서운(취)	경기 안성시 서운면 솔뫼로 241(신촌리)	36.9430027	127.2586663	안성우체국	7290	안성공단(취)	4128	안성공단(취)	4128
449	안성우체국	경기 안성시 아양로 12(석정동)	37.0086056	127.2629546	평택대학교(취)	11628	보개우체국	1841	보개우체국	1841
450	안양4동우체국	경기 안양시 만안구 병목안로 4(안양동)	37.399764	126.9197333	안양진흥(취)	521	서안양우체국	824	안양6동(취)	1971
451	안양6동(취)	"경기 안양시 만안구 만안로 35, 113-1호(안양동, 빌로채종합상가)"	37.3861969	126.934049	안양우편물류센터	1077	서안양우체국	1153	안양우편물류센터	1077
452	안양비산1동(취)	경기도 안양시 동안구 비산로 57 임곡휴먼시아상가 가동 102호 (비산동)	37.4015024	126.9316614	안양진흥(취)	608	서안양우체국	1052	안양진흥(취)	608
453	안양비산삼호(취)	경기 안양시 동안구 동안로 300 (비산동)	37.403535	126.9473121	안양우체국	1256	안양비산1동(취)	1409	안양지원출장소	1590
454	안양새마을(취)	경기 안양시 동안구 인덕원로8번길 4 (관양동)	37.4003541	126.973326	안양지원출장소	1029	안양비산삼호(취)	2339	안양지원출장소	1029
455	안양양지(취)	경기 안양시 만안구 양화로47번길 9 (안양동)	37.3975916	126.9125623	안양진흥(취)	1164	안양4동우체국	681	안양4동우체국	681
456	안양우체국	경기 안양시 동안구 평촌대로253번길 25(비산동)	37.3930666	126.9527054	안양우편집중국	587	안양비산삼호(취)	1256	안양우편집중국	587
457	안양우편물류센터	경기 안양시 동안구 시민대로 121	37.3885209	126.9458214	안양우편집중국	1238	안양우체국	793	안양비산삼호(취)	1671
458	안양우편집중국	경기 안양시 동안구 평촌대로 212 (관양동)	37.3918213	126.9591271	안양지원출장소	607	안양우체국	587	안양지원출장소	607
459	안양지원출장소	"경기 안양시 동안구 관평로212번길 70, 2층 (관양동,수원지방법원 안양지원)"	37.3964164	126.9628369	의왕내손(취)	1459	안양우편집중국	607	군포산본1동(취)	3358
460	안양진흥(취)	"경기 안양시 만안구 장내로 164,101(안양동, 청솔프라자)"	37.3990543	126.9255349	안양호계현대(취)	4075	안양4동우체국	521	안양4동우체국	521
461	안양호계3동(취)	경기 안양시 동안구 포도원로 12	37.3620724	126.9631901	안양호계현대(취)	1229	군포당정(취)	1395	군포당정(취)	1395
462	안양호계현대(취)	"경기도 안양시 동안구 엘에스로 76, 안양디오밸리 151호(호계1동)"	37.3698917	126.9533941	의왕내손동우체국	2267	군포금정동우체국	1006	군포금정동우체국	1006
463	안중우체국	경기 평택시 안중읍 안중로99번길 17-2	36.9902154	126.9272605	평택현화우체국	853	수원지법평택지원우체국	15231	원곡우체국	18741
464	양곡우체국	경기 김포시 양촌읍 양곡로 540 (양곡리 417-1)	37.6550504	126.6232631	통진우체국	4428	김포대곶우체국	3648	김포대곶우체국	3648
465	양도우체국	인천광역시 강화군 양도면 강화남로 711-1	37.6635346	126.4207733	온수우체국	6832	선원우체국	7878	온수우체국	6832
466	양동우체국	경기 양평군 양동면 학둔지아래길 83	37.4196242	127.7538543	여주오학(취)	15495	북내우체국	12043	단월우체국	14417
467	양주1동우체국	경기 양주시 평화로 1009 (남방동)	37.7815652	127.0452902	의정부가능동우체국	3848	백석우체국	4727	백석우체국	4727
468	양주덕계리(취)	경기 양주시 평화로 1445 (덕계동)	37.815249	127.0610798	양주덕정동우체국	3224	양주1동우체국	3993	양주덕정동우체국	3224
469	양주덕정동우체국	경기 양주시 덕정길 29	37.8442063	127.0640168	은현우체국	5059	양주덕계리(취)	3224	동두천지행동우체국	5573
470	양주장흥우체국	경기 양주시 장흥면 호국로 168	37.7159277	126.9400177	의정부가능동우체국	9105	고양본동우체국	3659	고양본동우체국	3659
471	양평양서우체국	경기 양평군 양서면 양수로152번길 26	37.5460161	127.3176077	퇴촌우체국	8418	경기조안우체국	2102	경기조안우체국	2102
472	양평우체국	경기 양평군 양평읍 해오름길 15	37.4888296	127.4904137	여주상품(취)	10372	강상우체국	840	강상우체국	840
473	양평청운우체국	경기 양평군 청운면 용두로 152	37.5549533	127.7097975	이포우체국	23832	단월우체국	4026	단월우체국	4026
474	여의도우체국	서울특별시 영등포구 여의대로 66(여의도동)	37.5245007	126.9237057	용산전자단지우체국	3649	서울전경련(취)	432	서울전경련(취)	432
475	여주상품(취)	경기 여주시 산북면 상품로 113	37.4033349	127.4432674	이포우체국	8192	백사우체국	8286	이포우체국	8192
476	여주오학(취)	경기 여주시 도예로 94	37.3107192	127.6447784	여주하리(취)	1736	북내우체국	3721	강천우체국	7695
477	여주우체국	경기 여주시 세종로 100	37.2894402	127.6340355	여주하리(취)	1098	여주오학(취)	2547	여주오학(취)	2547
478	여주하리(취)	경기 여주시 청심로 102	37.2991494	127.6316265	여주흥천(취)	8765	여주우체국	1098	여주우체국	1098
479	여주흥천(취)	경기도 여주시 흥천면 부흥로 459	37.3319753	127.5419488	이포우체국	6754	백사우체국	4548	백사우체국	4548
480	연천우체국	경기 연천군 연천읍 연천로 280 연천우체국	38.1018042	127.075278	전곡우체국	8600	동두천우체국	21058	동두천우체국	21058
481	연평우체국	인천광역시 옹진군 연평면 연평로137번길 13	37.6596184	125.7030844	인천공항우체국	69213	교동우체국	53168	교동우체국	53168
482	영종우체국	인천광역시 중구 운남로128번길 7(운남동)	37.4927709	126.535163	인천운서동우체국	4162	국제우편물류센터	6069	국제우편물류센터	6069
483	영흥우체국	인천광역시 옹진군 영흥면 영흥로 410	37.2530409	126.4701784	인천대학교(취)	19815	대부우체국	10206	대부우체국	10206
484	오산세교우체국	경기 오산시 문헌공로 37 (금암동 495-1)	37.178036	127.0566906	오산수청동(취)	1924	병점우체국	3812	오산수청동(취)	1924
485	오산수청동(취)	경기 오산시 내삼미로 3(수청동 73-2)	37.1630844	127.0676627	오산우체국	1573	오산세교우체국	1924	수원곡반정동(취)	9275
486	오산우체국	경기 오산시 성호대로 85 오산우체국	37.1491292	127.0708152	평택LG전자(취)	3271	오산수청동(취)	1573	오산수청동(취)	1573
487	오성우체국	평택시 오성면 숙성시장길 68	37.0082152	126.9853614	청북우체국	5968	안중우체국	5538	안중우체국	5538
488	온수우체국	인천광역시 강화군 길상면 삼랑성길 3-1	37.639921	126.4917497	통진우체국	11149	양도우체국	6832	김포대곶우체국	8169
489	용산전자단지우체국	서울시 용산구 청파로56 (한강로3가)	37.5254703	126.9647341	정부과천청사우체국	11090	서울용산우체국	932	서울공덕2동(취)	2623
490	용인구성우체국	경기 용인시 기흥구 마북로 39 (마북동)	37.2953256	127.1165894	용인상현(취)	3219	신갈우체국	2687	용인동백우체국	4005
491	용인남사우체국	경기 용인시 처인구 남사면 처인성로185번길 23 (남사면 봉무리)	37.1144375	127.1505631	평택LG전자(취)	5546	송전우체국	5083	오산우체국	8068
492	용인동백우체국	경기 용인시 기흥구 동백6로 39(중동)	37.2773384	127.155654	용인상하(취)	2970	용인구성우체국	4005	성남구미무지개(취)	7441
493	용인동천동우체국	경기 용인시 수지구 고기로45번길 62(동천동)	37.3385301	127.0923506	용인풍덕천리(취)	965	성남우편집중국	1894	성남우편집중국	1894
494	용인명지대학교(취)	경기 용인시 처인구 명지로 116 학생회관1층(남동)	37.2217282	127.1866568	용인역북(취)	1801	용인동백우체국	6759	용인역북(취)	1801
495	용인보라(취)	경기 용인시 기흥구 한보라1로 42-6(보라동)	37.2517695	127.1087589	용인상하(취)	3690	신갈우체국	2268	신갈우체국	2268
496	용인상하(취)	경기 용인시 기흥구 중부대로 814(상하동)	37.2509239	127.1502597	용인우체국	2877	용인동백우체국	2970	용인동백우체국	2970
497	용인상현(취)	경기 용인시 수지구 만현로 17(상현동)	37.3141493	127.0890292	용인수지우체국	1044	용인동천동우체국	2721	용인동천동우체국	2721
498	용인수지우체국	경기 용인시 수지구 문정로 3(풍덕천동)	37.3211906	127.0968207	용인풍덕천리(취)	1210	용인상현(취)	1044	용인상현(취)	1044
499	용인역북(취)	경기 용인시 처인구 금령로13번길 4(김량장동)	37.2351786	127.1980001	제505군사우편출장소	491	용인명지대학교(취)	1801	용인중앙동	864
500	용인우체국	경기 용인시 처인구 중부대로1161번길 73(삼가동) 용인우체국	37.2419621	127.1806319	제505군사우편출장소	1644	용인역북(취)	1717	용인역북(취)	1717
501	용인전대리(취)	경기 용인시 처인구 포곡읍 석성로 1117 (포곡읍 영문리)	37.2783004	127.2179091	제505군사우편출장소	4621	용인역북(취)	5102	용인중앙동	4793
502	용인죽전2동(취)	경기 용인시 수지구 용구대로2790번길 6 (죽전동)	37.3344176	127.1095382	용인풍덕천리(취)	944	성남구미무지개(취)	1087	용인풍덕천리(취)	944
503	용인중앙동	경기 용인시 처인구 금령로 101(김량장동)	37.2358898	127.2076815	제505군사우편출장소	881	용인역북(취)	864	용인상하(취)	5370
504	용인풍덕천리(취)	경기 용인시 수지구 문인로31번길 11-1 (풍덕천동)	37.3319042	127.0993849	의왕우체국	11478	용인죽전2동(취)	944	용인동천동우체국	965
505	용인한국외국어대학교(취)	경기 용인시 처인구 모현읍 외대로 81 학생회관1층 (모현읍 왕산리)	37.3383892	127.2694874	제505군사우편출장소	12638	모현우체국	1744	모현우체국	1744
506	운수우체국	경기 남양주시 수동면 비룡로 720	37.7205337	127.3076994	청평우체국	10233	마석우체국	7619	남양주우체국	10172
507	원곡우체국	경기 안성시 원곡면 가천중앙1길 38(외가천리)	37.0386291	127.1292123	평택대학교(취)	4853	수원지법평택지원우체국	4274	안성우체국	12348
508	원삼우체국	경기 용인시 처인구 원삼면 고당로16번길 17 (원삼면 고당리)	37.1663858	127.3103041	제505군사우편출장소	12808	백암우체국	5612	백암우체국	5612
509	위례우체국	경기 성남시 수정구 위례동로147 2층	37.450246	127.14554	하남우체국	5564	성남태평4동(취)	631	성남태평4동(취)	631
510	율면우체국	경기 이천시 율면 고당로 110	37.0924937	127.5452232	장호원우체국	7902	안성삼죽(취)	15258	이천모가(취)	10353
511	은현우체국	경기 양주시 은현면 은현로 73-36	37.875313	127.0224112	제92군사우편출장소	3524	동두천지행동우체국	3356	동두천지행동우체국	3356
512	의왕내손(취)	경기 의왕시 민백길 9 (내손동)	37.3863286	126.9733671	의왕내손동우체국	634	안양우편집중국	1405	안양우편집중국	1405
513	의왕내손동우체국	경기 의왕시 복지로 14(내손동)	37.3807578	126.9749866	의왕우체국	3269	의왕내손(취)	634	의왕내손(취)	634
514	의왕우체국	경기 의왕시 효행로 45(오전동)	37.3513613	126.9725815	정부과천청사우체국	8444	안양호계3동(취)	1452	안양호계3동(취)	1452
515	의정부1동우체국	경기 의정부시 호국로 1318 (의정부동)	37.7375763	127.0501442	의정부3동우체국	336	양주1동우체국	4900	의정부3동우체국	336
516	의정부2동우체국	경기 의정부시 시민로 35 (의정부동)	37.7385174	127.0390804	의정부3동우체국	921	의정부1동우체국	989	의정부신곡1동우체국	1798
517	의정부3동우체국	경기 의정부시 평화로 482 (의정부동)	37.7348862	127.0483974	의정부신곡1동우체국	877	의정부1동우체국	336	의정부신곡1동우체국	877
518	의정부가능동우체국	경기 의정부시 의정로 169 (가능동)	37.7480261	127.0342688	의정부우체국	2652	의정부2동우체국	1138	의정부2동우체국	1138
519	의정부민락동우체국	경기 의정부시 용현로159번길 14-10 (민락동)	37.7409646	127.0943916	의정부용현동(취)	927	의정부1동우체국	3951	의정부우편집중국	1235
520	의정부신곡1동우체국	경기 의정부시 발곡로 21 (신곡동)	37.7313621	127.0572278	의정부우체국	1808	의정부3동우체국	877	양주1동우체국	5671
521	의정부용현동(취)	경기 의정부시 충의로57번길 30 (용현동)	37.7364189	127.0856339	의정부우편집중국	1085	의정부민락동우체국	927	의정부민락동우체국	927
522	의정부우체국	경기 의정부시 추동로 88 (신곡동)	37.7467122	127.0640569	의정부우편집중국	1582	의정부1동우체국	1599	의정부우편집중국	1582
523	의정부우편집중국	경기 의정부시 산단로98번길 65 (용현동) 의정부우편집중국	37.7457092	127.0818154	진접우체국	10061	의정부용현동(취)	1085	의정부신곡1동우체국	2704
524	이천모가(취)	경기 이천시 모가면 진상미로 1272-5	37.1696861	127.4798358	이천우체국	12211	백암우체국	9477	가남우체국	6808
525	이천우체국	경기 이천시 경충대로 2610 (중리동)	37.2757016	127.4430393	이천증포동(취)	1771	백사우체국	8298	가남우체국	12238
526	이천증포동(취)	이천시 증신로 156번길 5	37.289897	127.4521615	이포우체국	13537	이천우체국	1771	이천우체국	1771
527	이포우체국	경기 여주시 금사면 이포로 36	37.392542	127.5344237	퇴촌우체국	22081	개군우체국	3703	개군우체국	3703
528	인천가좌2동우체국	인천광역시 서구 원적로96번길 27 (가좌동)	37.4934307	126.685091	인천공단우체국	1737	부평현대아파트우체국	2186	인천공단우체국	1737
529	인천간석동우체국	인천광역시 남동구 용천로 145(간석동)	37.4625604	126.7142874	인천백운(취)	1371	남인천우체국	1604	남인천우체국	1604
530	인천계산동우체국	인천 계양구 경명대로 1053 (계산동)	37.5437109	126.7239901	인천임학동(취)	901	서인천우체국	3690	부천테크노파크(취)	4516
531	인천계양1동우체국	인천 계양구 장기로 4 (장기동)	37.5768271	126.7359913	인천임학동(취)	3571	김포풍무동(취)	3416	김포풍무동(취)	3416
532	인천계양우체국	인천 계양구 계산새로 76 (계산동)	37.5374862	126.7362642	인천임학동(취)	822	인천계산동우체국	1291	인천계산동우체국	1291
533	인천공단우체국	인천광역시 서구 가재울로 72 (가좌동)	37.478092	126.681153	인천삼덕아파트(취)	1304	인천가좌2동우체국	1737	인천삼덕아파트(취)	1304
534	인천공항우체국	인천광역시 중구 공항로 272 (운서동) 인천국제공항 여객터미널 2층	37.4601908	126.4406957	인천운서동우체국	5594	국제우편물류센터	3111	국제우편물류센터	3111
535	인천구월동우체국	인천광역시 남동구 인주대로 554(구월동)	37.4499258	126.6982102	인천주안8동(취)	716	남인천우체국	1167	남인천우체국	1167
536	인천구월아파트(취)	인천 남동구 호구포로 775(구월동)	37.4403275	126.7113118	인천남촌동(취)	1014	인천구월동우체국	1578	인천서창동우체국	3734
537	인천남동공단우체국	인천광역시 남동구 남동대로239번길 86(논현동)	37.4086613	126.6948695	인천우체국	1213	인천구월아파트(취)	3806	인천구월아파트(취)	3806
538	인천남동우체국	인천광역시 남동구 논현로46번길 7	37.401106	126.7105186	인천논현동우체국	1363	인천남동공단우체국	1624	인천논현동우체국	1363
539	인천남촌동(취)	인천광역시 남동구 남촌로 120(남촌동)	37.4312434	126.7125703	인천논현동우체국	2003	인천구월아파트(취)	1014	인천구월아파트(취)	1014
540	인천논현동우체국	인천광역시 남동구 남동대로370번길 137(논현동)	37.4131985	126.7132407	인천우체국	2100	인천남동우체국	1363	인천남동공단우체국	1709
541	인천대학교(취)	인천광역시 연수구 아카데미로 119(송도동) 인천대학교	37.3750548	126.6328998	인천송도동우체국	2455	인천남동공단우체국	6653	인천연세대학교(취)	3274
542	인천동암우체국	인천광역시 부평구 열우물로 15 (십정2동)	37.4697741	126.7005396	인천백운(취)	794	남인천우체국	1106	인천백운(취)	794
543	인천동춘2동(취)	"인천광역시 연수구 먼우금로63번길 13, 114호(동춘동, 아주아파트)"	37.4038933	126.6687136	인천연수2동(취)	1202	인천남동공단우체국	2384	인천남동공단우체국	2384
544	인천만석동우체국	인천광역시 동구 제물량로 341 (만석동)	37.4820642	126.6196666	인천중동우체국	1376	인천공단우체국	5484	인천송림동우체국	2399
545	인천만수1동우체국	인천광역시 남동구 인주대로 907(만수동)	37.4483328	126.7383419	인천만수6동우체국	538	인천구월아파트(취)	2562	인천만수단지우체국	1273
546	인천만수6동우체국	인천광역시 남동구 장승남로 43(만수동)	37.4435754	126.7371629	인천서창동우체국	1778	인천만수1동우체국	538	인천만수1동우체국	538
547	인천만수단지우체국	인천광역시 남동구 만수로50번길 31(만수동)	37.4595492	126.7353356	인천일신풍림(취)	2816	인천만수1동우체국	1273	인천구월아파트(취)	3018
548	인천백운(취)	인천광역시 부평구 경인로 731 (십정2동)	37.4738196	126.7079152	인천삼덕아파트(취)	2259	인천동암우체국	794	인천간석동우체국	1371
549	인천부개동우체국	인천광역시 부평구 부흥북로 153 (부개3동)	37.5007354	126.7393946	인천부평5동(취)	708	부천상동우체국	1101	인천부평5동(취)	708
550	인천부평4동(취)	인천광역시 부평구 신트리로8번길 29 (부평4동)	37.5048849	126.7225669	인천부평5동(취)	1066	부평우체국	1325	인천부평5동(취)	1066
551	인천부평5동(취)	인천광역시 부평구 부흥로 359 (부평5동)	37.4987657	126.7318146	인천삼산동우체국	1509	인천부개동우체국	708	인천삼산동우체국	1509
552	인천불로(취)	인천광역시 서구 검단로 807	37.6168329	126.6877902	인천원당우체국	2489	김포감정동(취)	1746	김포감정동(취)	1746
553	인천산곡2동우체국	인천광역시 부평구 마장로272번길 95 (산곡2동)	37.5026888	126.7083711	인천삼산동우체국	2708	부평우체국	683	부평우체국	683
554	인천삼덕아파트(취)	인천광역시 미추홀구 석정로 437 (주안동)	37.4665861	126.6841631	인천주안4동(취)	999	남인천우체국	1293	인천주안4동(취)	999
555	인천삼산동우체국	인천광역시 부평구 굴포로 141 (삼산동)	37.5118136	126.7366226	인천작전동우체국	1914	인천부개동우체국	1253	인천작전동우체국	1914
556	인천서창동우체국	인천 남동구 서창방산로 67	37.4331494	126.752354	인천한화지구우체국	5116	인천만수6동우체국	1778	시흥대야동우체국	3254
557	인천송도동우체국	인천광역시 연수구 하모니로35번길 2 (송도동)	37.3912193	126.6517649	인천연세대학교(취)	1719	인천동춘2동(취)	2061	인천연세대학교(취)	1719
558	인천송림동우체국	인천광역시 동구 동산로 90 (송림동)	37.4753511	126.6453234	인천숭의동우체국	1442	인천만석동우체국	2399	남인천우체국	4841
559	인천숭의동우체국	인천광역시 미추홀구 인중로 4 (숭의동)	37.4625823	126.6423063	인천용현5동(취)	1020	인천송림동우체국	1442	인천송림동우체국	1442
560	인천신현동(취)	인천광역시 서구 염곡로 345 성신교회	37.5121292	126.6683694	인천청라1동우체국	2572	인천가좌2동우체국	2552	인천청라1동우체국	2572
561	인천연세대학교(취)	인천광역시 연수구 송도과학로 85 (송도동) Y프라자	37.383184	126.668307	인천연수2동(취)	3252	인천송도동우체국	1719	인천동춘2동(취)	2298
562	인천연수2동(취)	인천광역시 연수구 샘말로8번길 20 (연수동)	37.4113148	126.6785621	인천우체국	1388	인천동춘2동(취)	1202	인천동춘2동(취)	1202
563	인천옥련동우체국	인천광역시 연수구 한진로38번길 9 (옥련동)	37.4260237	126.6487153	인천지방법원우체국	2502	인천동춘2동(취)	3032	인천지방법원우체국	2502
564	인천용현5동(취)	인천광역시 미추홀구 토금북로 14-1 (용현동)	37.4548793	126.6360327	인하대학교(취)	1642	인천숭의동우체국	1020	인천숭의동우체국	1020
565	인천우체국	인천광역시 연수구 함박뫼로 226(연수동)	37.419097	126.6907887	인천주안8동(취)	3260	인천남동공단우체국	1213	인천남동공단우체국	1213
566	인천운서동우체국	인천광역시 중구 흰바위로27번길 6 (운서동)	37.4931059	126.488349	인천항동우체국	10808	국제우편물류센터	3056	국제우편물류센터	3056
567	인천원당우체국	인천광역시 서구 고산후로121번길 38 인천원당우체국	37.5951903	126.6951595	인천임학동(취)	6585	검단우체국	1545	검단우체국	1545
568	인천유통센타(취)	인천광역시 동구 방축로83번길 23 (송림동)	37.4859001	126.6550853	인천중동우체국	3329	인천송림동우체국	1457	인천송림동우체국	1457
569	인천일신풍림(취)	인천광역시 부평구 일신로14번길 3 (일신동)	37.4836435	126.7452968	인천지법부천지원우체국	1423	부천상동우체국	1566	인천지법부천지원우체국	1423
570	인천임학동(취)	인천 계양구 임학서로6번길 8 (임학동)	37.5446833	126.7340515	인천작전동우체국	1929	인천계양우체국	822	인천계양우체국	822
571	인천작전동우체국	인천 계양구 효서로 292 (작전동)	37.5278456	126.7286591	인천지법부천지원우체국	4748	인천계양우체국	1265	인천계양우체국	1265
572	인천주안4동(취)	인천광역시 미추홀구 경인로 418 (주안동)	37.457787	126.6865405	인천주안8동(취)	1087	남인천우체국	926	남인천우체국	926
573	인천주안8동(취)	인천광역시 미추홀구 경원대로 740 (주안동)	37.4484722	126.690356	주안우체국	1856	인천구월동우체국	716	인천구월동우체국	716
574	인천중동우체국	인천광역시 중구 제물량로 183 (항동6가)	37.4700125	126.6233124	인천항동우체국	2836	인천만석동우체국	1376	인천만석동우체국	1376
575	인천지방법원우체국	인천광역시 미추홀구 소성로163번길 17 (학익동)	37.4426722	126.667699	인천학익동우체국	332	인천주안8동(취)	2114	인천주안8동(취)	2114
576	인천지법부천지원우체국	경기 부천시 상일로 129 (상동)	37.4918763	126.7575775	주안우체국	8317	부천상동우체국	824	부천상동우체국	824
577	인천청라1동우체국	인천 서구 청라라임로 52	37.5321616	126.65382	주안우체국	8352	인천신현동(취)	2572	서인천우체국	2791
578	인천학익동우체국	인천광역시 미추홀구 한나루로 430 (학익동)	37.4455331	126.6665928	인하대학교(취)	1267	인천지방법원우체국	332	인천지방법원우체국	332
579	인천한화지구우체국	인천광역시 남동구 에코중앙로 178(논현동)	37.3916334	126.7273405	주안우체국	8829	인천남동우체국	1828	인천남동우체국	1828
580	인천항동우체국	인천광역시 중구 연안부두로 67 (항동7가)	37.4532219	126.5992578	인하대학교(취)	4834	인천중동우체국	2836	인천용현5동(취)	3274
581	인하대학교(취)	인천광역시 미추홀구 인하로 100 (용현동)	37.4500221	126.653488	주안우체국	2038	인천학익동우체국	1267	인천지방법원우체국	1503
582	장호원우체국	경기 이천시 장호원읍 샘재로 146	37.1175756	127.6284108	점동우체국	10479	율면우체국	7902	율면우체국	7902
583	적성우체국	경기 파주시 적성면 청송로 1049	37.9559495	126.9211806	제92군사우편출장소	12343	신산우체국	8200	신산우체국	8200
584	전곡우체국	경기 연천군 전곡읍 전곡역로 69(전곡리 333-11)	38.024397	127.0705862	제92군사우편출장소	13750	연천우체국	8600	연천우체국	8600
585	점동우체국	경기 여주시 점동면 청안로 154	37.2076092	127.6639583	제505군사우편출장소	41500	강천우체국	8426	강천우체국	8426
586	정부과천청사우체국	경기 과천시 관문로 47 (중앙동)	37.4268286	126.9847533	하남우체국	16432	과천우체국	853	고양화전동우체국	21817
587	제103군사우편출장소	경기도 포천시 이동면 노곡리	38.0231721	127.3317854	포천이동우체국	3265	가평조종우체국	22872	포천이동우체국	3265
588	제109군사우편출장소	경기 파주시 조리읍 오산리 199-1	37.7787844	126.8426969	파주광탄(취)	557	봉일천우체국	5071	봉일천우체국	5071
589	제309군사우편출장소	경기도 평택시 신장로 55(신장동 298-15)	37.0822127	127.0511056	평택서정(취)	983	송탄우체국	497	평택이충동(취)	2347
590	제505군사우편출장소	경기도 용인시 처인구 학산로 3	37.2395495	127.198887	화성우체국	11314	용인역북(취)	491	용인역북(취)	491
591	제800군사우편출장소	경기도 평택시 포승면 2함대길 91(원정7리 산109-53)	36.9923179	126.8257927	포승우체국	4943	안중우체국	9024	안중우체국	9024
592	제92군사우편출장소	경기 동두천시 벌마들로39번길9-19	37.9024906	127.0429218	포천선단(취)	12199	동두천중앙동우체국	942	동두천광암동출장소	3730
593	주안우체국	인천광역시 미추홀구 제일로 32 (도화동)	37.4586136	126.6737504	통진우체국	26542	인천주안4동(취)	1140	인천주안4동(취)	1140
594	진건우체국	경기 남양주시 진건읍 사릉로 405	37.6560602	127.1793566	퇴계원우체국	3369	남양주왕숙천(취)	4032	남양주왕숙천(취)	4032
595	진위우체국	평택시 진위면 봉남길 62	37.0991855	127.0904631	평택LG전자(취)	2713	송탄우체국	3555	평택LG전자(취)	2713
596	진접우체국	경기 남양주시 진접읍 해밀예당1로 48	37.7127491	127.1872371	퇴계원우체국	8233	남양주장현(취)	856	남양주장현(취)	856
597	청북우체국	평택시 청북읍 신포길 70	37.0422305	126.9333704	평택현화우체국	6485	안중우체국	5798	안중우체국	5798
598	청평우체국	경기 가평군 청평면 잠곡로 19 (청평우체국)	37.7371331	127.4209214	포천일동우체국	24538	설악우체국	9127	설악우체국	9127
599	탄현우체국	경기 파주시 탄현면 방촌로 651	37.80231	126.7178993	파주금촌3동(취)	6220	문산우체국	8485	파주금촌3동(취)	6220
600	통진우체국	경기 김포시 통진읍 조강로 52(서암리 718-2)	37.6904045	126.6001663	하성우체국	4102	양곡우체국	4428	양곡우체국	4428
601	퇴계원우체국	경기 남양주시 퇴계원면 경춘북로 533	37.6475884	127.1429587	하남석해(취)	13432	진건우체국	3369	진건우체국	3369
602	퇴촌우체국	경기 광주시 퇴촌면 광동로 29	37.4707305	127.3060434	하남창우동우체국	10766	경기광주우체국	6690	경기광주태전(취)	11205
603	파주광탄(취)	경기도 파주시 광탄면 큰여울길 18 (신산리188-74)	37.7790043	126.8489585	파주금촌3동(취)	6564	제109군사우편출장소	557	제109군사우편출장소	557
604	파주금촌3동(취)	경기 파주시 시청로 209 (아동동)	37.7708709	126.7758208	파주우체국	1021	봉일천우체국	4049	파주우체국	1021
605	파주동패(취)	경기 파주시 교하로 421(동패동)	37.719762	126.7242439	파주운정동우체국	3200	교하우체국	1133	고양가좌동(취)	3783
606	파주우체국	경기 파주시 새꽃로 1 (금촌동)	37.7619892	126.7727867	파주운정동우체국	4027	파주금촌3동(취)	1021	파주운정동우체국	4027
607	파주운정동우체국	경기 파주시 금바위로 36 (와동동)	37.727433	126.758945	하성우체국	11594	파주동패(취)	3200	파주동패(취)	3200
608	팔탄우체국	경기 화성시 팔탄면 서촌길 13-1	37.1607493	126.9034088	화성향남우체국	3573	봉담우체국	8071	봉담우체국	8071
609	평택LG전자(취)	경기 평택시 진위면 엘지로 222	37.1236179	127.0892413	평택하북(취)	2673	진위우체국	2713	오산우체국	3271
610	평택대학교(취)	평택시 서동대로 3825	36.9950199	127.1332688	평택합정동우체국	3650	수원지법평택지원우체국	3658	평택우체국	3850
611	평택서정(취)	평택시 신서로 14 (서정동)	37.0742292	127.0463025	평택이충동(취)	2019	제309군사우편출장소	983	제309군사우편출장소	983
612	평택세교동(취)	평택시 세교상가5길 23 (세교동)	36.9990964	127.0809014	평택우체국	945	수원지법평택지원우체국	1873	평택우체국	945
613	평택안정(취)	평택시 팽성읍 안정쇼핑로 51	36.9619704	127.0473563	평택합정동우체국	5059	평택세교동(취)	5086	평택세교동(취)	5086
614	평택우체국	경기 평택시 중앙로 63 (비전동)	36.9946326	127.0899572	평택합정동우체국	633	평택세교동(취)	945	원곡우체국	6001
615	평택이충동(취)	경기 평택시 이충로108번길 17 (서정동)	37.0644577	127.0654663	평택중앙동우체국	1212	평택서정(취)	2019	원곡우체국	6351
616	평택중앙동우체국	평택시 서정역로 28 (서정동)	37.0566105	127.0559832	평택하북(취)	6070	평택이충동(취)	1212	평택이충동(취)	1212
617	평택하북(취)	평택시 진위면 하북1길 15	37.1109608	127.0636564	한신대학교(취)	9854	서탄우체국	2562	서탄우체국	2562
618	평택합정동우체국	평택시 평택3로 3 (합정동)	36.9893991	127.0928144	평택현화우체국	15321	평택우체국	633	평택우체국	633
619	평택현화우체국	평택시 안중읍 현화중앙길 69	36.9846977	126.9205804	현덕우체국	2115	안중우체국	853	안중우체국	853
620	포승우체국	평택시 포승읍 서동대로 1118	36.9803942	126.8793681	현덕우체국	3904	평택현화우체국	3695	평택현화우체국	3695
621	포천군내우체국	경기 포천시 군내면 청군로 3278(구읍리 214 )	37.8875274	127.218298	포천우체국	1789	대진대학교(취)	5768	동두천광암동출장소	11960
622	포천선단(취)	경기 포천시 호국로 1005	37.8545505	127.1664045	포천송우우체국	3112	대진대학교(취)	2054	포천송우우체국	3112
623	포천송우우체국	경기 포천시 소흘읍 솔모루로 105(송우리 221-1)	37.8305056	127.1483898	포천우체국	9215	포천선단(취)	3112	양주덕정동우체국	7653
624	포천신북우체국	경기 포천시 신북면 포천로 2152(심곡리 305-1 )	37.9422541	127.187591	포천우체국	4961	포천군내우체국	6658	포천군내우체국	6658
625	포천영중우체국	경기 포천시 영중면 양문로6길 6 (양문리 772-19 )	38.0006808	127.2430422	포천일동우체국	9739	포천신북우체국	8145	포천신북우체국	8145
626	포천우체국	경기 포천시 중앙로 159(신읍동)	37.8998764	127.2053596	포천일동우체국	12020	포천군내우체국	1789	포천군내우체국	1789
627	포천이동우체국	경기 포천시 이동면 화동로 2058-5(장암리 240-23 )	38.0315404	127.3670014	포천일동우체국	10172	제103군사우편출장소	3265	포천영중우체국	11540
628	포천일동우체국	경기 포천시 일동면 화동로 1068(기산리 82-7)	37.9453486	127.3280668	하남창우동우체국	45989	제103군사우편출장소	8643	포천영중우체국	9739
629	하남석해(취)	경기 하남시 하남대로777번길 14 (신장동)	37.5391895	127.2101739	하남창우동우체국	977	서울강일동우체국	4341	하남창우동우체국	977
630	하남우체국	경기 하남시 신장동로35	37.5003853	127.1451644	하남창우동우체국	8053	서울가락극동(취)	1243	성남가천대학교(취)	5427
631	하남창우동우체국	경기 하남시 대청로 80 (창우동)	37.5398993	127.221137	화성우체국	39014	하남석해(취)	977	덕소우체국	5352
632	하성우체국	경기 김포시 하성면 애기봉로 824(마곡리 629-9)	37.719302	126.6289346	화성와우(취)	64086	통진우체국	4102	통진우체국	4102
633	한신대학교(취)	경기 오산시 한신대길 137(양산동 한신대학교 내)	37.1935849	127.0230487	화성동탄3동우체국	3609	병점우체국	1805	오산세교우체국	3453
634	현덕우체국	평택시 현덕면 인광길 57	36.9656648	126.9192557	화성향남우체국	18288	평택현화우체국	2115	평택현화우체국	2115
635	화성동탄3동우체국	경기 화성시 동탄숲속로 69-39	37.2100028	127.0580954	화성우체국	1794	병점우체국	2155	화성우체국	1794
636	화성와우(취)	경기 화성시 봉담읍 와우로 112	37.2141091	126.9780938	화성우체국	8915	봉담우체국	1534	봉담우체국	1534
637	화성우체국	경기 화성시 노작로 240 (석우동)	37.2075709	127.0780446	화성향남우체국	16678	화성동탄3동우체국	1794	오산세교우체국	3787
638	화성향남우체국	경기 화성시 향남읍 행정서로3길 53	37.1304505	126.9170299			팔탄우체국	3573	팔탄우체국	3573
